[
    {
        "address1": "1775 Liberty Ln #70",
        "address2": "",
        "city": "Blacksburg",
        "state": "VA",
        "postalCode": "24060",
        "coordinates": {
            "lat": 0,
            "lng": 0
        }
    },
    {
        "address1": "2004 Scott Dr",
        "address2": "",
        "city": "Blacksburg",
        "state": "VA",
        "postalCode": "24060",
        "coordinates": {
            "lat": 0,
            "lng": 0
        }
    },
    {
        "address1": "3245 Laurel Dr",
        "address2": "",
        "city": "Blacksburg",
        "state": "VA",
        "postalCode": "24060",
        "coordinates": {
            "lat": 0,
            "lng": 0
        }
    },
    {
        "address1": "415 Giles Rd",
        "address2": "",
        "city": "Blacksburg",
        "state": "VA",
        "postalCode": "24060",
        "coordinates": {
            "lat": 0,
            "lng": 0
        }
    },
    {
        "address1": "3610 S Main St",
        "address2": "",
        "city": "Blacksburg",
        "state": "VA",
        "postalCode": "24060",
        "coordinates": {
            "lat": 0,
            "lng": 0
        }
    },
    {
        "address1": "307 Ardmore St",
        "address2": "",
        "city": "Blacksburg",
        "state": "VA",
        "postalCode": "24060",
        "coordinates": {
            "lat": 0,
            "lng": 0
        }
    },
    {
        "address1": "210 Prices Fork Rd #6",
        "address2": "",
        "city": "Blacksburg",
        "state": "VA",
        "postalCode": "24060",
        "coordinates": {
            "lat": 0,
            "lng": 0
        }
    },
    {
        "address1": "5560 Norris Run Rd",
        "address2": "",
        "city": "Blacksburg",
        "state": "VA",
        "postalCode": "24060",
        "coordinates": {
            "lat": 0,
            "lng": 0
        }
    },
    {
        "address1": "3020 Lick Run Rd",
        "address2": "",
        "city": "Blacksburg",
        "state": "VA",
        "postalCode": "24060",
        "coordinates": {
            "lat": 0,
            "lng": 0
        }
    },
    {
        "address1": "2834 Peppers Ferry Rd",
        "address2": "",
        "city": "Christiansburg",
        "state": "VA",
        "postalCode": "24073",
        "coordinates": {
            "lat": 0,
            "lng": 0
        }
    },
    {
        "address1": "295 Lucas St NE",
        "address2": "",
        "city": "Christiansburg",
        "state": "VA",
        "postalCode": "24073",
        "coordinates": {
            "lat": 0,
            "lng": 0
        }
    },
    {
        "address1": "1785 Electric Way #APT 2",
        "address2": "",
        "city": "Christiansburg",
        "state": "VA",
        "postalCode": "24073",
        "coordinates": {
            "lat": 0,
            "lng": 0
        }
    },
    {
        "address1": "265 Tanglewood Dr",
        "address2": "",
        "city": "Christiansburg",
        "state": "VA",
        "postalCode": "24073",
        "coordinates": {
            "lat": 0,
            "lng": 0
        }
    },
    {
        "address1": "140 Windsong Ln",
        "address2": "",
        "city": "Christiansburg",
        "state": "VA",
        "postalCode": "24073",
        "coordinates": {
            "lat": 0,
            "lng": 0
        }
    },
    {
        "address1": "515 Falling Branch Rd",
        "address2": "",
        "city": "Christiansburg",
        "state": "VA",
        "postalCode": "24073",
        "coordinates": {
            "lat": 0,
            "lng": 0
        }
    },
    {
        "address1": "385 Cheverly Rd",
        "address2": "",
        "city": "Christiansburg",
        "state": "VA",
        "postalCode": "24073",
        "coordinates": {
            "lat": 0,
            "lng": 0
        }
    },
    {
        "address1": "1825 Cambria St NE",
        "address2": "",
        "city": "Christiansburg",
        "state": "VA",
        "postalCode": "24073",
        "coordinates": {
            "lat": 0,
            "lng": 0
        }
    },
    {
        "address1": "781 Talon Ln",
        "address2": "",
        "city": "Christiansburg",
        "state": "VA",
        "postalCode": "24073",
        "coordinates": {
            "lat": 0,
            "lng": 0
        }
    },
    {
        "address1": "28 Carriage House Cir",
        "address2": "",
        "city": "Alexandria",
        "state": "VA",
        "postalCode": "22304",
        "coordinates": {
            "lat": 0,
            "lng": 0
        }
    },
    {
        "address1": "28 Carriage House Cir",
        "address2": "",
        "city": "Alexandria",
        "state": "VA",
        "postalCode": "22304",
        "coordinates": {
            "lat": 0,
            "lng": 0
        }
    },
    {
        "address1": "5375 Duke St #APT 209",
        "address2": "",
        "city": "Alexandria",
        "state": "VA",
        "postalCode": "22304",
        "coordinates": {
            "lat": 0,
            "lng": 0
        }
    },
    {
        "address1": "5375 Duke St #APT 209",
        "address2": "",
        "city": "Alexandria",
        "state": "VA",
        "postalCode": "22304",
        "coordinates": {
            "lat": 0,
            "lng": 0
        }
    },
    {
        "address1": "36 S Gordon St",
        "address2": "",
        "city": "Alexandria",
        "state": "VA",
        "postalCode": "22304",
        "coordinates": {
            "lat": 0,
            "lng": 0
        }
    },
    {
        "address1": "36 S Gordon St",
        "address2": "",
        "city": "Alexandria",
        "state": "VA",
        "postalCode": "22304",
        "coordinates": {
            "lat": 0,
            "lng": 0
        }
    },
    {
        "address1": "145 Century Dr #5102",
        "address2": "",
        "city": "Alexandria",
        "state": "VA",
        "postalCode": "22304",
        "coordinates": {
            "lat": 0,
            "lng": 0
        }
    },
    {
        "address1": "145 Century Dr #5102",
        "address2": "",
        "city": "Alexandria",
        "state": "VA",
        "postalCode": "22304",
        "coordinates": {
            "lat": 0,
            "lng": 0
        }
    },
    {
        "address1": "519 N Ripley St",
        "address2": "",
        "city": "Alexandria",
        "state": "VA",
        "postalCode": "22304",
        "coordinates": {
            "lat": 0,
            "lng": 0
        }
    },
    {
        "address1": "2610 Foundry Way",
        "address2": "",
        "city": "Alexandria",
        "state": "VA",
        "postalCode": "22314",
        "coordinates": {
            "lat": 0,
            "lng": 0
        }
    },
    {
        "address1": "2610 Foundry Way",
        "address2": "",
        "city": "Alexandria",
        "state": "VA",
        "postalCode": "22314",
        "coordinates": {
            "lat": 0,
            "lng": 0
        }
    },
    {
        "address1": "611 N Patrick St",
        "address2": "",
        "city": "Alexandria",
        "state": "VA",
        "postalCode": "22314",
        "coordinates": {
            "lat": 0,
            "lng": 0
        }
    },
    {
        "address1": "611 N Patrick St",
        "address2": "",
        "city": "Alexandria",
        "state": "VA",
        "postalCode": "22314",
        "coordinates": {
            "lat": 0,
            "lng": 0
        }
    },
    {
        "address1": "823 Rivergate Pl",
        "address2": "",
        "city": "Alexandria",
        "state": "VA",
        "postalCode": "22314",
        "coordinates": {
            "lat": 0,
            "lng": 0
        }
    },
    {
        "address1": "823 Rivergate Pl",
        "address2": "",
        "city": "Alexandria",
        "state": "VA",
        "postalCode": "22314",
        "coordinates": {
            "lat": 0,
            "lng": 0
        }
    },
    {
        "address1": "507 S Columbus St",
        "address2": "",
        "city": "Alexandria",
        "state": "VA",
        "postalCode": "22314",
        "coordinates": {
            "lat": 0,
            "lng": 0
        }
    },
    {
        "address1": "507 S Columbus St",
        "address2": "",
        "city": "Alexandria",
        "state": "VA",
        "postalCode": "22314",
        "coordinates": {
            "lat": 0,
            "lng": 0
        }
    },
    {
        "address1": "996 N Royal St",
        "address2": "",
        "city": "Alexandria",
        "state": "VA",
        "postalCode": "22314",
        "coordinates": {
            "lat": 0,
            "lng": 0
        }
    },
    {
        "address1": "2000 N Adams St #423",
        "address2": "",
        "city": "Arlington",
        "state": "VA",
        "postalCode": "22201",
        "coordinates": {
            "lat": 0,
            "lng": 0
        }
    },
    {
        "address1": "2000 N Adams St #423",
        "address2": "",
        "city": "Arlington",
        "state": "VA",
        "postalCode": "22201",
        "coordinates": {
            "lat": 0,
            "lng": 0
        }
    },
    {
        "address1": "1040 N Quincy St #401",
        "address2": "",
        "city": "Arlington",
        "state": "VA",
        "postalCode": "22201",
        "coordinates": {
            "lat": 0,
            "lng": 0
        }
    },
    {
        "address1": "910 S Buchanan St",
        "address2": "",
        "city": "Arlington",
        "state": "VA",
        "postalCode": "22204",
        "coordinates": {
            "lat": 0,
            "lng": 0
        }
    },
    {
        "address1": "910 S Buchanan St",
        "address2": "",
        "city": "Arlington",
        "state": "VA",
        "postalCode": "22204",
        "coordinates": {
            "lat": 0,
            "lng": 0
        }
    },
    {
        "address1": "835 S Greenbrier St",
        "address2": "",
        "city": "Arlington",
        "state": "VA",
        "postalCode": "22204",
        "coordinates": {
            "lat": 0,
            "lng": 0
        }
    },
    {
        "address1": "835 S Greenbrier St",
        "address2": "",
        "city": "Arlington",
        "state": "VA",
        "postalCode": "22204",
        "coordinates": {
            "lat": 0,
            "lng": 0
        }
    },
    {
        "address1": "1077 S Quebec St",
        "address2": "",
        "city": "Arlington",
        "state": "VA",
        "postalCode": "22204",
        "coordinates": {
            "lat": 0,
            "lng": 0
        }
    },
    {
        "address1": "1077 S Quebec St",
        "address2": "",
        "city": "Arlington",
        "state": "VA",
        "postalCode": "22204",
        "coordinates": {
            "lat": 0,
            "lng": 0
        }
    },
    {
        "address1": "3724 5th St S",
        "address2": "",
        "city": "Arlington",
        "state": "VA",
        "postalCode": "22204",
        "coordinates": {
            "lat": 0,
            "lng": 0
        }
    },
    {
        "address1": "3724 5th St S",
        "address2": "",
        "city": "Arlington",
        "state": "VA",
        "postalCode": "22204",
        "coordinates": {
            "lat": 0,
            "lng": 0
        }
    },
    {
        "address1": "1414 S Queen St",
        "address2": "",
        "city": "Arlington",
        "state": "VA",
        "postalCode": "22204",
        "coordinates": {
            "lat": 0,
            "lng": 0
        }
    },
    {
        "address1": "2312 N Wakefield St",
        "address2": "",
        "city": "Arlington",
        "state": "VA",
        "postalCode": "22207",
        "coordinates": {
            "lat": 0,
            "lng": 0
        }
    },
    {
        "address1": "2312 N Wakefield St",
        "address2": "",
        "city": "Arlington",
        "state": "VA",
        "postalCode": "22207",
        "coordinates": {
            "lat": 0,
            "lng": 0
        }
    },
    {
        "address1": "4733 Rock Spring Rd",
        "address2": "",
        "city": "Arlington",
        "state": "VA",
        "postalCode": "22207",
        "coordinates": {
            "lat": 0,
            "lng": 0
        }
    },
    {
        "address1": "4733 Rock Spring Rd",
        "address2": "",
        "city": "Arlington",
        "state": "VA",
        "postalCode": "22207",
        "coordinates": {
            "lat": 0,
            "lng": 0
        }
    },
    {
        "address1": "4124 N Richmond St",
        "address2": "",
        "city": "Arlington",
        "state": "VA",
        "postalCode": "22207",
        "coordinates": {
            "lat": 0,
            "lng": 0
        }
    },
    {
        "address1": "4124 N Richmond St",
        "address2": "",
        "city": "Arlington",
        "state": "VA",
        "postalCode": "22207",
        "coordinates": {
            "lat": 0,
            "lng": 0
        }
    },
    {
        "address1": "4069 27th Rd N",
        "address2": "",
        "city": "Arlington",
        "state": "VA",
        "postalCode": "22207",
        "coordinates": {
            "lat": 0,
            "lng": 0
        }
    },
    {
        "address1": "4069 27th Rd N",
        "address2": "",
        "city": "Arlington",
        "state": "VA",
        "postalCode": "22207",
        "coordinates": {
            "lat": 0,
            "lng": 0
        }
    },
    {
        "address1": "3515 36th St N",
        "address2": "",
        "city": "Arlington",
        "state": "VA",
        "postalCode": "22207",
        "coordinates": {
            "lat": 0,
            "lng": 0
        }
    },
    {
        "address1": "1700 Sherwood Hall Ln",
        "address2": "",
        "city": "Alexandria",
        "state": "VA",
        "postalCode": "22306",
        "coordinates": {
            "lat": 0,
            "lng": 0
        }
    },
    {
        "address1": "1700 Sherwood Hall Ln",
        "address2": "",
        "city": "Alexandria",
        "state": "VA",
        "postalCode": "22306",
        "coordinates": {
            "lat": 0,
            "lng": 0
        }
    },
    {
        "address1": "1629 Courtland Rd",
        "address2": "",
        "city": "Alexandria",
        "state": "VA",
        "postalCode": "22306",
        "coordinates": {
            "lat": 0,
            "lng": 0
        }
    },
    {
        "address1": "1629 Courtland Rd",
        "address2": "",
        "city": "Alexandria",
        "state": "VA",
        "postalCode": "22306",
        "coordinates": {
            "lat": 0,
            "lng": 0
        }
    },
    {
        "address1": "2629 Arlington Dr #302",
        "address2": "",
        "city": "Alexandria",
        "state": "VA",
        "postalCode": "22306",
        "coordinates": {
            "lat": 0,
            "lng": 0
        }
    },
    {
        "address1": "2629 Arlington Dr #302",
        "address2": "",
        "city": "Alexandria",
        "state": "VA",
        "postalCode": "22306",
        "coordinates": {
            "lat": 0,
            "lng": 0
        }
    },
    {
        "address1": "2720 Boswell Ave",
        "address2": "",
        "city": "Alexandria",
        "state": "VA",
        "postalCode": "22306",
        "coordinates": {
            "lat": 0,
            "lng": 0
        }
    },
    {
        "address1": "2720 Boswell Ave",
        "address2": "",
        "city": "Alexandria",
        "state": "VA",
        "postalCode": "22306",
        "coordinates": {
            "lat": 0,
            "lng": 0
        }
    },
    {
        "address1": "3006 Furman Ln",
        "address2": "",
        "city": "Alexandria",
        "state": "VA",
        "postalCode": "22306",
        "coordinates": {
            "lat": 0,
            "lng": 0
        }
    },
    {
        "address1": "9395 Mount Vernon Cir",
        "address2": "",
        "city": "Alexandria",
        "state": "VA",
        "postalCode": "22309",
        "coordinates": {
            "lat": 0,
            "lng": 0
        }
    },
    {
        "address1": "9395 Mount Vernon Cir",
        "address2": "",
        "city": "Alexandria",
        "state": "VA",
        "postalCode": "22309",
        "coordinates": {
            "lat": 0,
            "lng": 0
        }
    },
    {
        "address1": "4333 Pembrook Village Dr",
        "address2": "",
        "city": "Alexandria",
        "state": "VA",
        "postalCode": "22309",
        "coordinates": {
            "lat": 0,
            "lng": 0
        }
    },
    {
        "address1": "4333 Pembrook Village Dr",
        "address2": "",
        "city": "Alexandria",
        "state": "VA",
        "postalCode": "22309",
        "coordinates": {
            "lat": 0,
            "lng": 0
        }
    },
    {
        "address1": "5117 Pole Rd",
        "address2": "",
        "city": "Alexandria",
        "state": "VA",
        "postalCode": "22309",
        "coordinates": {
            "lat": 0,
            "lng": 0
        }
    },
    {
        "address1": "5117 Pole Rd",
        "address2": "",
        "city": "Alexandria",
        "state": "VA",
        "postalCode": "22309",
        "coordinates": {
            "lat": 0,
            "lng": 0
        }
    },
    {
        "address1": "8014 Imperial St",
        "address2": "",
        "city": "Alexandria",
        "state": "VA",
        "postalCode": "22309",
        "coordinates": {
            "lat": 0,
            "lng": 0
        }
    },
    {
        "address1": "8014 Imperial St",
        "address2": "",
        "city": "Alexandria",
        "state": "VA",
        "postalCode": "22309",
        "coordinates": {
            "lat": 0,
            "lng": 0
        }
    },
    {
        "address1": "8407 Byers Dr",
        "address2": "",
        "city": "Alexandria",
        "state": "VA",
        "postalCode": "22309",
        "coordinates": {
            "lat": 0,
            "lng": 0
        }
    },
    {
        "address1": "4111 Ivanhoe Ln",
        "address2": "",
        "city": "Alexandria",
        "state": "VA",
        "postalCode": "22310",
        "coordinates": {
            "lat": 0,
            "lng": 0
        }
    },
    {
        "address1": "4111 Ivanhoe Ln",
        "address2": "",
        "city": "Alexandria",
        "state": "VA",
        "postalCode": "22310",
        "coordinates": {
            "lat": 0,
            "lng": 0
        }
    },
    {
        "address1": "6065 Essex House Sq #A",
        "address2": "",
        "city": "Alexandria",
        "state": "VA",
        "postalCode": "22310",
        "coordinates": {
            "lat": 0,
            "lng": 0
        }
    },
    {
        "address1": "6065 Essex House Sq #A",
        "address2": "",
        "city": "Alexandria",
        "state": "VA",
        "postalCode": "22310",
        "coordinates": {
            "lat": 0,
            "lng": 0
        }
    },
    {
        "address1": "6523 Riefton Ct",
        "address2": "",
        "city": "Alexandria",
        "state": "VA",
        "postalCode": "22310",
        "coordinates": {
            "lat": 0,
            "lng": 0
        }
    },
    {
        "address1": "6523 Riefton Ct",
        "address2": "",
        "city": "Alexandria",
        "state": "VA",
        "postalCode": "22310",
        "coordinates": {
            "lat": 0,
            "lng": 0
        }
    },
    {
        "address1": "6612 Glassell Ct",
        "address2": "",
        "city": "Alexandria",
        "state": "VA",
        "postalCode": "22310",
        "coordinates": {
            "lat": 0,
            "lng": 0
        }
    },
    {
        "address1": "6905 Victoria Dr #D",
        "address2": "",
        "city": "Alexandria",
        "state": "VA",
        "postalCode": "22310",
        "coordinates": {
            "lat": 0,
            "lng": 0
        }
    },
    {
        "address1": "5872 Woodfield Estates Dr",
        "address2": "",
        "city": "Alexandria",
        "state": "VA",
        "postalCode": "22310",
        "coordinates": {
            "lat": 0,
            "lng": 0
        }
    },
    {
        "address1": "6547 River Tweed Ln",
        "address2": "",
        "city": "Alexandria",
        "state": "VA",
        "postalCode": "22312",
        "coordinates": {
            "lat": 0,
            "lng": 0
        }
    },
    {
        "address1": "6547 River Tweed Ln",
        "address2": "",
        "city": "Alexandria",
        "state": "VA",
        "postalCode": "22312",
        "coordinates": {
            "lat": 0,
            "lng": 0
        }
    },
    {
        "address1": "6609 Jupiter Hills Cir",
        "address2": "",
        "city": "Alexandria",
        "state": "VA",
        "postalCode": "22312",
        "coordinates": {
            "lat": 0,
            "lng": 0
        }
    },
    {
        "address1": "6609 Jupiter Hills Cir",
        "address2": "",
        "city": "Alexandria",
        "state": "VA",
        "postalCode": "22312",
        "coordinates": {
            "lat": 0,
            "lng": 0
        }
    },
    {
        "address1": "5851 Quantrell Ave #APT 307",
        "address2": "",
        "city": "Alexandria",
        "state": "VA",
        "postalCode": "22312",
        "coordinates": {
            "lat": 0,
            "lng": 0
        }
    },
    {
        "address1": "5851 Quantrell Ave #APT 307",
        "address2": "",
        "city": "Alexandria",
        "state": "VA",
        "postalCode": "22312",
        "coordinates": {
            "lat": 0,
            "lng": 0
        }
    },
    {
        "address1": "6117 Berlee Dr",
        "address2": "",
        "city": "Alexandria",
        "state": "VA",
        "postalCode": "22312",
        "coordinates": {
            "lat": 0,
            "lng": 0
        }
    },
    {
        "address1": "6117 Berlee Dr",
        "address2": "",
        "city": "Alexandria",
        "state": "VA",
        "postalCode": "22312",
        "coordinates": {
            "lat": 0,
            "lng": 0
        }
    },
    {
        "address1": "5618 Bloomfield Dr #10",
        "address2": "",
        "city": "Alexandria",
        "state": "VA",
        "postalCode": "22312",
        "coordinates": {
            "lat": 0,
            "lng": 0
        }
    },
    {
        "address1": "8113 Saxony Dr",
        "address2": "",
        "city": "Annandale",
        "state": "VA",
        "postalCode": "22003",
        "coordinates": {
            "lat": 0,
            "lng": 0
        }
    },
    {
        "address1": "3326 Woodburn Village Dr #34",
        "address2": "",
        "city": "Annandale",
        "state": "VA",
        "postalCode": "22003",
        "coordinates": {
            "lat": 0,
            "lng": 0
        }
    },
    {
        "address1": "7200 Pine Dr",
        "address2": "",
        "city": "Annandale",
        "state": "VA",
        "postalCode": "22003",
        "coordinates": {
            "lat": 0,
            "lng": 0
        }
    },
    {
        "address1": "7401 Eastmoreland Rd #APT 202",
        "address2": "",
        "city": "Annandale",
        "state": "VA",
        "postalCode": "22003",
        "coordinates": {
            "lat": 0,
            "lng": 0
        }
    },
    {
        "address1": "7401 Eastmoreland Rd #APT 412",
        "address2": "",
        "city": "Annandale",
        "state": "VA",
        "postalCode": "22003",
        "coordinates": {
            "lat": 0,
            "lng": 0
        }
    },
    {
        "address1": "4416 Island Pl #102",
        "address2": "",
        "city": "Annandale",
        "state": "VA",
        "postalCode": "22003",
        "coordinates": {
            "lat": 0,
            "lng": 0
        }
    },
    {
        "address1": "4437 Elan Ct",
        "address2": "",
        "city": "Annandale",
        "state": "VA",
        "postalCode": "22003",
        "coordinates": {
            "lat": 0,
            "lng": 0
        }
    },
    {
        "address1": "6833 Pacific Ln",
        "address2": "",
        "city": "Annandale",
        "state": "VA",
        "postalCode": "22003",
        "coordinates": {
            "lat": 0,
            "lng": 0
        }
    },
    {
        "address1": "4135 Watkins Trl",
        "address2": "",
        "city": "Annandale",
        "state": "VA",
        "postalCode": "22003",
        "coordinates": {
            "lat": 0,
            "lng": 0
        }
    },
    {
        "address1": "5827 Cove Landing Rd #APT 301",
        "address2": "",
        "city": "Burke",
        "state": "VA",
        "postalCode": "22015",
        "coordinates": {
            "lat": 0,
            "lng": 0
        }
    },
    {
        "address1": "10715 Oakenshaw Ct",
        "address2": "",
        "city": "Burke",
        "state": "VA",
        "postalCode": "22015",
        "coordinates": {
            "lat": 0,
            "lng": 0
        }
    },
    {
        "address1": "5819 Pin Oak Commons Ct",
        "address2": "",
        "city": "Burke",
        "state": "VA",
        "postalCode": "22015",
        "coordinates": {
            "lat": 0,
            "lng": 0
        }
    },
    {
        "address1": "5906 Bridgetown Ct #37",
        "address2": "",
        "city": "Burke",
        "state": "VA",
        "postalCode": "22015",
        "coordinates": {
            "lat": 0,
            "lng": 0
        }
    },
    {
        "address1": "9605 Woodedge Dr",
        "address2": "",
        "city": "Burke",
        "state": "VA",
        "postalCode": "22015",
        "coordinates": {
            "lat": 0,
            "lng": 0
        }
    },
    {
        "address1": "10203 Chase Commons Dr",
        "address2": "",
        "city": "Burke",
        "state": "VA",
        "postalCode": "22015",
        "coordinates": {
            "lat": 0,
            "lng": 0
        }
    },
    {
        "address1": "6330 Falling Brook Dr",
        "address2": "",
        "city": "Burke",
        "state": "VA",
        "postalCode": "22015",
        "coordinates": {
            "lat": 0,
            "lng": 0
        }
    },
    {
        "address1": "5837 Cove Landing Rd #301",
        "address2": "",
        "city": "Burke",
        "state": "VA",
        "postalCode": "22015",
        "coordinates": {
            "lat": 0,
            "lng": 0
        }
    },
    {
        "address1": "10095 Bunker Woods Ct",
        "address2": "",
        "city": "Burke",
        "state": "VA",
        "postalCode": "22015",
        "coordinates": {
            "lat": 0,
            "lng": 0
        }
    },
    {
        "address1": "5114 Castle Way Hbr",
        "address2": "",
        "city": "Centreville",
        "state": "VA",
        "postalCode": "20120",
        "coordinates": {
            "lat": 0,
            "lng": 0
        }
    },
    {
        "address1": "5114 Castle Way Hbr",
        "address2": "",
        "city": "Centreville",
        "state": "VA",
        "postalCode": "20120",
        "coordinates": {
            "lat": 0,
            "lng": 0
        }
    },
    {
        "address1": "6200 Point Cir",
        "address2": "",
        "city": "Centreville",
        "state": "VA",
        "postalCode": "20120",
        "coordinates": {
            "lat": 0,
            "lng": 0
        }
    },
    {
        "address1": "6200 Point Cir",
        "address2": "",
        "city": "Centreville",
        "state": "VA",
        "postalCode": "20120",
        "coordinates": {
            "lat": 0,
            "lng": 0
        }
    },
    {
        "address1": "6553 Hallissey Ct",
        "address2": "",
        "city": "Centreville",
        "state": "VA",
        "postalCode": "20120",
        "coordinates": {
            "lat": 0,
            "lng": 0
        }
    },
    {
        "address1": "6553 Hallissey Ct",
        "address2": "",
        "city": "Centreville",
        "state": "VA",
        "postalCode": "20120",
        "coordinates": {
            "lat": 0,
            "lng": 0
        }
    },
    {
        "address1": "15009 Carlbern Dr",
        "address2": "",
        "city": "Centreville",
        "state": "VA",
        "postalCode": "20120",
        "coordinates": {
            "lat": 0,
            "lng": 0
        }
    },
    {
        "address1": "15009 Carlbern Dr",
        "address2": "",
        "city": "Centreville",
        "state": "VA",
        "postalCode": "20120",
        "coordinates": {
            "lat": 0,
            "lng": 0
        }
    },
    {
        "address1": "5636 Willoughby Newton Dr #16",
        "address2": "",
        "city": "Centreville",
        "state": "VA",
        "postalCode": "20120",
        "coordinates": {
            "lat": 0,
            "lng": 0
        }
    },
    {
        "address1": "6211 Centreville Rd #800",
        "address2": "",
        "city": "Centreville",
        "state": "VA",
        "postalCode": "20121",
        "coordinates": {
            "lat": 0,
            "lng": 0
        }
    },
    {
        "address1": "6211 Centreville Rd #800",
        "address2": "",
        "city": "Centreville",
        "state": "VA",
        "postalCode": "20121",
        "coordinates": {
            "lat": 0,
            "lng": 0
        }
    },
    {
        "address1": "14816 Edman Cir",
        "address2": "",
        "city": "Centreville",
        "state": "VA",
        "postalCode": "20121",
        "coordinates": {
            "lat": 0,
            "lng": 0
        }
    },
    {
        "address1": "14816 Edman Cir",
        "address2": "",
        "city": "Centreville",
        "state": "VA",
        "postalCode": "20121",
        "coordinates": {
            "lat": 0,
            "lng": 0
        }
    },
    {
        "address1": "14309 Climbing Rose Way #203",
        "address2": "",
        "city": "Centreville",
        "state": "VA",
        "postalCode": "20121",
        "coordinates": {
            "lat": 0,
            "lng": 0
        }
    },
    {
        "address1": "14309 Climbing Rose Way #203",
        "address2": "",
        "city": "Centreville",
        "state": "VA",
        "postalCode": "20121",
        "coordinates": {
            "lat": 0,
            "lng": 0
        }
    },
    {
        "address1": "6455 Mccoy Rd",
        "address2": "",
        "city": "Centreville",
        "state": "VA",
        "postalCode": "20121",
        "coordinates": {
            "lat": 0,
            "lng": 0
        }
    },
    {
        "address1": "6455 Mccoy Rd",
        "address2": "",
        "city": "Centreville",
        "state": "VA",
        "postalCode": "20121",
        "coordinates": {
            "lat": 0,
            "lng": 0
        }
    },
    {
        "address1": "6405 Sutler Store Ct",
        "address2": "",
        "city": "Centreville",
        "state": "VA",
        "postalCode": "20121",
        "coordinates": {
            "lat": 0,
            "lng": 0
        }
    },
    {
        "address1": "3890 Fairfax Sq",
        "address2": "",
        "city": "Fairfax",
        "state": "VA",
        "postalCode": "22031",
        "coordinates": {
            "lat": 0,
            "lng": 0
        }
    },
    {
        "address1": "3890 Fairfax Sq",
        "address2": "",
        "city": "Fairfax",
        "state": "VA",
        "postalCode": "22031",
        "coordinates": {
            "lat": 0,
            "lng": 0
        }
    },
    {
        "address1": "2934 Piney Grove Ct",
        "address2": "",
        "city": "Fairfax",
        "state": "VA",
        "postalCode": "22031",
        "coordinates": {
            "lat": 0,
            "lng": 0
        }
    },
    {
        "address1": "2934 Piney Grove Ct",
        "address2": "",
        "city": "Fairfax",
        "state": "VA",
        "postalCode": "22031",
        "coordinates": {
            "lat": 0,
            "lng": 0
        }
    },
    {
        "address1": "9644 Blake Ln",
        "address2": "",
        "city": "Fairfax",
        "state": "VA",
        "postalCode": "22031",
        "coordinates": {
            "lat": 0,
            "lng": 0
        }
    },
    {
        "address1": "9644 Blake Ln",
        "address2": "",
        "city": "Fairfax",
        "state": "VA",
        "postalCode": "22031",
        "coordinates": {
            "lat": 0,
            "lng": 0
        }
    },
    {
        "address1": "3955 Persimmon Dr",
        "address2": "",
        "city": "Fairfax",
        "state": "VA",
        "postalCode": "22031",
        "coordinates": {
            "lat": 0,
            "lng": 0
        }
    },
    {
        "address1": "3955 Persimmon Dr",
        "address2": "",
        "city": "Fairfax",
        "state": "VA",
        "postalCode": "22031",
        "coordinates": {
            "lat": 0,
            "lng": 0
        }
    },
    {
        "address1": "10011 Laurie Pl",
        "address2": "",
        "city": "Fairfax",
        "state": "VA",
        "postalCode": "22031",
        "coordinates": {
            "lat": 0,
            "lng": 0
        }
    },
    {
        "address1": "10801 Rippon Lodge Dr",
        "address2": "",
        "city": "Fairfax",
        "state": "VA",
        "postalCode": "22032",
        "coordinates": {
            "lat": 0,
            "lng": 0
        }
    },
    {
        "address1": "10801 Rippon Lodge Dr",
        "address2": "",
        "city": "Fairfax",
        "state": "VA",
        "postalCode": "22032",
        "coordinates": {
            "lat": 0,
            "lng": 0
        }
    },
    {
        "address1": "4209 Middlebrook St",
        "address2": "",
        "city": "Fairfax",
        "state": "VA",
        "postalCode": "22032",
        "coordinates": {
            "lat": 0,
            "lng": 0
        }
    },
    {
        "address1": "4209 Middlebrook St",
        "address2": "",
        "city": "Fairfax",
        "state": "VA",
        "postalCode": "22032",
        "coordinates": {
            "lat": 0,
            "lng": 0
        }
    },
    {
        "address1": "4729 Briar Patch Ln",
        "address2": "",
        "city": "Fairfax",
        "state": "VA",
        "postalCode": "22032",
        "coordinates": {
            "lat": 0,
            "lng": 0
        }
    },
    {
        "address1": "4729 Briar Patch Ln",
        "address2": "",
        "city": "Fairfax",
        "state": "VA",
        "postalCode": "22032",
        "coordinates": {
            "lat": 0,
            "lng": 0
        }
    },
    {
        "address1": "10519 Earlham St",
        "address2": "",
        "city": "Fairfax",
        "state": "VA",
        "postalCode": "22032",
        "coordinates": {
            "lat": 0,
            "lng": 0
        }
    },
    {
        "address1": "10519 Earlham St",
        "address2": "",
        "city": "Fairfax",
        "state": "VA",
        "postalCode": "22032",
        "coordinates": {
            "lat": 0,
            "lng": 0
        }
    },
    {
        "address1": "4303 Argonne Dr",
        "address2": "",
        "city": "Fairfax",
        "state": "VA",
        "postalCode": "22032",
        "coordinates": {
            "lat": 0,
            "lng": 0
        }
    },
    {
        "address1": "12110 Monument Dr",
        "address2": "",
        "city": "Fairfax",
        "state": "VA",
        "postalCode": "22033",
        "coordinates": {
            "lat": 0,
            "lng": 0
        }
    },
    {
        "address1": "12110 Monument Dr",
        "address2": "",
        "city": "Fairfax",
        "state": "VA",
        "postalCode": "22033",
        "coordinates": {
            "lat": 0,
            "lng": 0
        }
    },
    {
        "address1": "12249 Pender Creek Cir",
        "address2": "",
        "city": "Fairfax",
        "state": "VA",
        "postalCode": "22033",
        "coordinates": {
            "lat": 0,
            "lng": 0
        }
    },
    {
        "address1": "12249 Pender Creek Cir",
        "address2": "",
        "city": "Fairfax",
        "state": "VA",
        "postalCode": "22033",
        "coordinates": {
            "lat": 0,
            "lng": 0
        }
    },
    {
        "address1": "12474 Sweet Leaf Ter",
        "address2": "",
        "city": "Fairfax",
        "state": "VA",
        "postalCode": "22033",
        "coordinates": {
            "lat": 0,
            "lng": 0
        }
    },
    {
        "address1": "12474 Sweet Leaf Ter",
        "address2": "",
        "city": "Fairfax",
        "state": "VA",
        "postalCode": "22033",
        "coordinates": {
            "lat": 0,
            "lng": 0
        }
    },
    {
        "address1": "12362 Washington Brice Rd",
        "address2": "",
        "city": "Fairfax",
        "state": "VA",
        "postalCode": "22033",
        "coordinates": {
            "lat": 0,
            "lng": 0
        }
    },
    {
        "address1": "12362 Washington Brice Rd",
        "address2": "",
        "city": "Fairfax",
        "state": "VA",
        "postalCode": "22033",
        "coordinates": {
            "lat": 0,
            "lng": 0
        }
    },
    {
        "address1": "3712 Broomsedge Ct",
        "address2": "",
        "city": "Fairfax",
        "state": "VA",
        "postalCode": "22033",
        "coordinates": {
            "lat": 0,
            "lng": 0
        }
    },
    {
        "address1": "8077 Genea Way #2",
        "address2": "",
        "city": "Falls Church",
        "state": "VA",
        "postalCode": "22042",
        "coordinates": {
            "lat": 0,
            "lng": 0
        }
    },
    {
        "address1": "7328 Poplar Ct",
        "address2": "",
        "city": "Falls Church",
        "state": "VA",
        "postalCode": "22042",
        "coordinates": {
            "lat": 0,
            "lng": 0
        }
    },
    {
        "address1": "2906 Meadow Ln",
        "address2": "",
        "city": "Falls Church",
        "state": "VA",
        "postalCode": "22042",
        "coordinates": {
            "lat": 0,
            "lng": 0
        }
    },
    {
        "address1": "2920 Woodlawn Ave",
        "address2": "",
        "city": "Falls Church",
        "state": "VA",
        "postalCode": "22042",
        "coordinates": {
            "lat": 0,
            "lng": 0
        }
    },
    {
        "address1": "6805 Kingwood Dr",
        "address2": "",
        "city": "Falls Church",
        "state": "VA",
        "postalCode": "22042",
        "coordinates": {
            "lat": 0,
            "lng": 0
        }
    },
    {
        "address1": "7756 New Providence Dr #14",
        "address2": "",
        "city": "Falls Church",
        "state": "VA",
        "postalCode": "22042",
        "coordinates": {
            "lat": 0,
            "lng": 0
        }
    },
    {
        "address1": "6913 Jefferson Ave",
        "address2": "",
        "city": "Falls Church",
        "state": "VA",
        "postalCode": "22042",
        "coordinates": {
            "lat": 0,
            "lng": 0
        }
    },
    {
        "address1": "6722 Chestnut Ave",
        "address2": "",
        "city": "Falls Church",
        "state": "VA",
        "postalCode": "22042",
        "coordinates": {
            "lat": 0,
            "lng": 0
        }
    },
    {
        "address1": "2833 Meadow Ln",
        "address2": "",
        "city": "Falls Church",
        "state": "VA",
        "postalCode": "22042",
        "coordinates": {
            "lat": 0,
            "lng": 0
        }
    },
    {
        "address1": "12802 Lady Fairfax Cir",
        "address2": "",
        "city": "Herndon",
        "state": "VA",
        "postalCode": "20170",
        "coordinates": {
            "lat": 0,
            "lng": 0
        }
    },
    {
        "address1": "12802 Lady Fairfax Cir",
        "address2": "",
        "city": "Herndon",
        "state": "VA",
        "postalCode": "20170",
        "coordinates": {
            "lat": 0,
            "lng": 0
        }
    },
    {
        "address1": "2165 Astoria Cir",
        "address2": "",
        "city": "Herndon",
        "state": "VA",
        "postalCode": "20170",
        "coordinates": {
            "lat": 0,
            "lng": 0
        }
    },
    {
        "address1": "2165 Astoria Cir",
        "address2": "",
        "city": "Herndon",
        "state": "VA",
        "postalCode": "20170",
        "coordinates": {
            "lat": 0,
            "lng": 0
        }
    },
    {
        "address1": "871 Grace St",
        "address2": "",
        "city": "Herndon",
        "state": "VA",
        "postalCode": "20170",
        "coordinates": {
            "lat": 0,
            "lng": 0
        }
    },
    {
        "address1": "871 Grace St",
        "address2": "",
        "city": "Herndon",
        "state": "VA",
        "postalCode": "20170",
        "coordinates": {
            "lat": 0,
            "lng": 0
        }
    },
    {
        "address1": "12119 Sandy Ct",
        "address2": "",
        "city": "Herndon",
        "state": "VA",
        "postalCode": "20170",
        "coordinates": {
            "lat": 0,
            "lng": 0
        }
    },
    {
        "address1": "12119 Sandy Ct",
        "address2": "",
        "city": "Herndon",
        "state": "VA",
        "postalCode": "20170",
        "coordinates": {
            "lat": 0,
            "lng": 0
        }
    },
    {
        "address1": "1102 Safa St",
        "address2": "",
        "city": "Herndon",
        "state": "VA",
        "postalCode": "20170",
        "coordinates": {
            "lat": 0,
            "lng": 0
        }
    },
    {
        "address1": "13450 Sunrise Valley Dr #100",
        "address2": "",
        "city": "Herndon",
        "state": "VA",
        "postalCode": "20171",
        "coordinates": {
            "lat": 0,
            "lng": 0
        }
    },
    {
        "address1": "13450 Sunrise Valley Dr #100",
        "address2": "",
        "city": "Herndon",
        "state": "VA",
        "postalCode": "20171",
        "coordinates": {
            "lat": 0,
            "lng": 0
        }
    },
    {
        "address1": "13568 Highland Mews Ct",
        "address2": "",
        "city": "Herndon",
        "state": "VA",
        "postalCode": "20171",
        "coordinates": {
            "lat": 0,
            "lng": 0
        }
    },
    {
        "address1": "13568 Highland Mews Ct",
        "address2": "",
        "city": "Herndon",
        "state": "VA",
        "postalCode": "20171",
        "coordinates": {
            "lat": 0,
            "lng": 0
        }
    },
    {
        "address1": "13792 Merrybrook Ct",
        "address2": "",
        "city": "Herndon",
        "state": "VA",
        "postalCode": "20171",
        "coordinates": {
            "lat": 0,
            "lng": 0
        }
    },
    {
        "address1": "13792 Merrybrook Ct",
        "address2": "",
        "city": "Herndon",
        "state": "VA",
        "postalCode": "20171",
        "coordinates": {
            "lat": 0,
            "lng": 0
        }
    },
    {
        "address1": "13792 Merrybrook Ct #APT 204",
        "address2": "",
        "city": "Herndon",
        "state": "VA",
        "postalCode": "20171",
        "coordinates": {
            "lat": 0,
            "lng": 0
        }
    },
    {
        "address1": "13792 Merrybrook Ct #APT 204",
        "address2": "",
        "city": "Herndon",
        "state": "VA",
        "postalCode": "20171",
        "coordinates": {
            "lat": 0,
            "lng": 0
        }
    },
    {
        "address1": "13958 Mansarde Ave",
        "address2": "",
        "city": "Herndon",
        "state": "VA",
        "postalCode": "20171",
        "coordinates": {
            "lat": 0,
            "lng": 0
        }
    },
    {
        "address1": "9769 Hagel Cir",
        "address2": "",
        "city": "Lorton",
        "state": "VA",
        "postalCode": "22079",
        "coordinates": {
            "lat": 0,
            "lng": 0
        }
    },
    {
        "address1": "8815 Lagrange St",
        "address2": "",
        "city": "Lorton",
        "state": "VA",
        "postalCode": "22079",
        "coordinates": {
            "lat": 0,
            "lng": 0
        }
    },
    {
        "address1": "9212 Treasure Oak Ct",
        "address2": "",
        "city": "Lorton",
        "state": "VA",
        "postalCode": "22079",
        "coordinates": {
            "lat": 0,
            "lng": 0
        }
    },
    {
        "address1": "11417 Potomac Rd",
        "address2": "",
        "city": "Lorton",
        "state": "VA",
        "postalCode": "22079",
        "coordinates": {
            "lat": 0,
            "lng": 0
        }
    },
    {
        "address1": "9034 Lorton Station Blvd #461",
        "address2": "",
        "city": "Lorton",
        "state": "VA",
        "postalCode": "22079",
        "coordinates": {
            "lat": 0,
            "lng": 0
        }
    },
    {
        "address1": "10718 Greene Dr",
        "address2": "",
        "city": "Lorton",
        "state": "VA",
        "postalCode": "22079",
        "coordinates": {
            "lat": 0,
            "lng": 0
        }
    },
    {
        "address1": "6713 Catskill Rd",
        "address2": "",
        "city": "Lorton",
        "state": "VA",
        "postalCode": "22079",
        "coordinates": {
            "lat": 0,
            "lng": 0
        }
    },
    {
        "address1": "7725 Porters Hill Ln",
        "address2": "",
        "city": "Lorton",
        "state": "VA",
        "postalCode": "22079",
        "coordinates": {
            "lat": 0,
            "lng": 0
        }
    },
    {
        "address1": "7309 Harrogate Ct",
        "address2": "",
        "city": "Lorton",
        "state": "VA",
        "postalCode": "22079",
        "coordinates": {
            "lat": 0,
            "lng": 0
        }
    },
    {
        "address1": "2342 Old Trail Dr",
        "address2": "",
        "city": "Reston",
        "state": "VA",
        "postalCode": "20191",
        "coordinates": {
            "lat": 0,
            "lng": 0
        }
    },
    {
        "address1": "2225 Wheelwright Ct",
        "address2": "",
        "city": "Reston",
        "state": "VA",
        "postalCode": "20191",
        "coordinates": {
            "lat": 0,
            "lng": 0
        }
    },
    {
        "address1": "2221 Stone Wheel Dr",
        "address2": "",
        "city": "Reston",
        "state": "VA",
        "postalCode": "20191",
        "coordinates": {
            "lat": 0,
            "lng": 0
        }
    },
    {
        "address1": "11571 Woodhollow Ct",
        "address2": "",
        "city": "Reston",
        "state": "VA",
        "postalCode": "20191",
        "coordinates": {
            "lat": 0,
            "lng": 0
        }
    },
    {
        "address1": "2367 Old Trail Dr",
        "address2": "",
        "city": "Reston",
        "state": "VA",
        "postalCode": "20191",
        "coordinates": {
            "lat": 0,
            "lng": 0
        }
    },
    {
        "address1": "11710 Decade Ct",
        "address2": "",
        "city": "Reston",
        "state": "VA",
        "postalCode": "20191",
        "coordinates": {
            "lat": 0,
            "lng": 0
        }
    },
    {
        "address1": "11439 Tanbark Dr",
        "address2": "",
        "city": "Reston",
        "state": "VA",
        "postalCode": "20191",
        "coordinates": {
            "lat": 0,
            "lng": 0
        }
    },
    {
        "address1": "2203 Halter Ln",
        "address2": "",
        "city": "Reston",
        "state": "VA",
        "postalCode": "20191",
        "coordinates": {
            "lat": 0,
            "lng": 0
        }
    },
    {
        "address1": "12222 Quorn Ln",
        "address2": "",
        "city": "Reston",
        "state": "VA",
        "postalCode": "20191",
        "coordinates": {
            "lat": 0,
            "lng": 0
        }
    },
    {
        "address1": "8704 Shadowlake Way",
        "address2": "",
        "city": "Springfield",
        "state": "VA",
        "postalCode": "22153",
        "coordinates": {
            "lat": 0,
            "lng": 0
        }
    },
    {
        "address1": "7404 Forest Hunt Ct",
        "address2": "",
        "city": "Springfield",
        "state": "VA",
        "postalCode": "22153",
        "coordinates": {
            "lat": 0,
            "lng": 0
        }
    },
    {
        "address1": "6914 Conservation Dr",
        "address2": "",
        "city": "Springfield",
        "state": "VA",
        "postalCode": "22153",
        "coordinates": {
            "lat": 0,
            "lng": 0
        }
    },
    {
        "address1": "7500 Ballyshannon Ct",
        "address2": "",
        "city": "Springfield",
        "state": "VA",
        "postalCode": "22153",
        "coordinates": {
            "lat": 0,
            "lng": 0
        }
    },
    {
        "address1": "8509 Jenner Ct",
        "address2": "",
        "city": "Springfield",
        "state": "VA",
        "postalCode": "22153",
        "coordinates": {
            "lat": 0,
            "lng": 0
        }
    },
    {
        "address1": "7404 Spring Tree Dr",
        "address2": "",
        "city": "Springfield",
        "state": "VA",
        "postalCode": "22153",
        "coordinates": {
            "lat": 0,
            "lng": 0
        }
    },
    {
        "address1": "8111 Loving Forest Ct",
        "address2": "",
        "city": "Springfield",
        "state": "VA",
        "postalCode": "22153",
        "coordinates": {
            "lat": 0,
            "lng": 0
        }
    },
    {
        "address1": "8015 Steeple Chase Ct",
        "address2": "",
        "city": "Springfield",
        "state": "VA",
        "postalCode": "22153",
        "coordinates": {
            "lat": 0,
            "lng": 0
        }
    },
    {
        "address1": "7684 Southern Oak Dr",
        "address2": "",
        "city": "Springfield",
        "state": "VA",
        "postalCode": "22153",
        "coordinates": {
            "lat": 0,
            "lng": 0
        }
    },
    {
        "address1": "10605 Mclean Ave",
        "address2": "",
        "city": "Fairfax",
        "state": "VA",
        "postalCode": "22030",
        "coordinates": {
            "lat": 0,
            "lng": 0
        }
    },
    {
        "address1": "10605 Mclean Ave",
        "address2": "",
        "city": "Fairfax",
        "state": "VA",
        "postalCode": "22030",
        "coordinates": {
            "lat": 0,
            "lng": 0
        }
    },
    {
        "address1": "5320 Hampton Way Frst",
        "address2": "",
        "city": "Fairfax",
        "state": "VA",
        "postalCode": "22030",
        "coordinates": {
            "lat": 0,
            "lng": 0
        }
    },
    {
        "address1": "5320 Hampton Way Frst",
        "address2": "",
        "city": "Fairfax",
        "state": "VA",
        "postalCode": "22030",
        "coordinates": {
            "lat": 0,
            "lng": 0
        }
    },
    {
        "address1": "3808 Egan Dr",
        "address2": "",
        "city": "Fairfax",
        "state": "VA",
        "postalCode": "22030",
        "coordinates": {
            "lat": 0,
            "lng": 0
        }
    },
    {
        "address1": "3808 Egan Dr",
        "address2": "",
        "city": "Fairfax",
        "state": "VA",
        "postalCode": "22030",
        "coordinates": {
            "lat": 0,
            "lng": 0
        }
    },
    {
        "address1": "12228 Lincoln Way Lk",
        "address2": "",
        "city": "Fairfax",
        "state": "VA",
        "postalCode": "22030",
        "coordinates": {
            "lat": 0,
            "lng": 0
        }
    },
    {
        "address1": "12228 Lincoln Way Lk",
        "address2": "",
        "city": "Fairfax",
        "state": "VA",
        "postalCode": "22030",
        "coordinates": {
            "lat": 0,
            "lng": 0
        }
    },
    {
        "address1": "4064 Clovet Dr",
        "address2": "",
        "city": "Fairfax",
        "state": "VA",
        "postalCode": "22030",
        "coordinates": {
            "lat": 0,
            "lng": 0
        }
    },
    {
        "address1": "44260 Navajo Dr",
        "address2": "",
        "city": "Ashburn",
        "state": "VA",
        "postalCode": "20147",
        "coordinates": {
            "lat": 0,
            "lng": 0
        }
    },
    {
        "address1": "44260 Navajo Dr",
        "address2": "",
        "city": "Ashburn",
        "state": "VA",
        "postalCode": "20147",
        "coordinates": {
            "lat": 0,
            "lng": 0
        }
    },
    {
        "address1": "44114 Gala Cir",
        "address2": "",
        "city": "Ashburn",
        "state": "VA",
        "postalCode": "20147",
        "coordinates": {
            "lat": 0,
            "lng": 0
        }
    },
    {
        "address1": "44114 Gala Cir",
        "address2": "",
        "city": "Ashburn",
        "state": "VA",
        "postalCode": "20147",
        "coordinates": {
            "lat": 0,
            "lng": 0
        }
    },
    {
        "address1": "20064 Coltsfoot Ter",
        "address2": "",
        "city": "Ashburn",
        "state": "VA",
        "postalCode": "20147",
        "coordinates": {
            "lat": 0,
            "lng": 0
        }
    },
    {
        "address1": "20064 Coltsfoot Ter",
        "address2": "",
        "city": "Ashburn",
        "state": "VA",
        "postalCode": "20147",
        "coordinates": {
            "lat": 0,
            "lng": 0
        }
    },
    {
        "address1": "44206 Big Trail Ter",
        "address2": "",
        "city": "Ashburn",
        "state": "VA",
        "postalCode": "20147",
        "coordinates": {
            "lat": 0,
            "lng": 0
        }
    },
    {
        "address1": "44206 Big Trail Ter",
        "address2": "",
        "city": "Ashburn",
        "state": "VA",
        "postalCode": "20147",
        "coordinates": {
            "lat": 0,
            "lng": 0
        }
    },
    {
        "address1": "43402 Postrail Sq",
        "address2": "",
        "city": "Ashburn",
        "state": "VA",
        "postalCode": "20147",
        "coordinates": {
            "lat": 0,
            "lng": 0
        }
    },
    {
        "address1": "21848 Ainsley Ct",
        "address2": "",
        "city": "Ashburn",
        "state": "VA",
        "postalCode": "20148",
        "coordinates": {
            "lat": 0,
            "lng": 0
        }
    },
    {
        "address1": "21848 Ainsley Ct",
        "address2": "",
        "city": "Ashburn",
        "state": "VA",
        "postalCode": "20148",
        "coordinates": {
            "lat": 0,
            "lng": 0
        }
    },
    {
        "address1": "43183 Thistledown Ter",
        "address2": "",
        "city": "Ashburn",
        "state": "VA",
        "postalCode": "20148",
        "coordinates": {
            "lat": 0,
            "lng": 0
        }
    },
    {
        "address1": "43183 Thistledown Ter",
        "address2": "",
        "city": "Ashburn",
        "state": "VA",
        "postalCode": "20148",
        "coordinates": {
            "lat": 0,
            "lng": 0
        }
    },
    {
        "address1": "42567 Good Hope Ln",
        "address2": "",
        "city": "Ashburn",
        "state": "VA",
        "postalCode": "20148",
        "coordinates": {
            "lat": 0,
            "lng": 0
        }
    },
    {
        "address1": "42567 Good Hope Ln",
        "address2": "",
        "city": "Ashburn",
        "state": "VA",
        "postalCode": "20148",
        "coordinates": {
            "lat": 0,
            "lng": 0
        }
    },
    {
        "address1": "21967 Shawbury Cir",
        "address2": "",
        "city": "Ashburn",
        "state": "VA",
        "postalCode": "20148",
        "coordinates": {
            "lat": 0,
            "lng": 0
        }
    },
    {
        "address1": "21967 Shawbury Cir",
        "address2": "",
        "city": "Ashburn",
        "state": "VA",
        "postalCode": "20148",
        "coordinates": {
            "lat": 0,
            "lng": 0
        }
    },
    {
        "address1": "22086 Avonworth Sq",
        "address2": "",
        "city": "Ashburn",
        "state": "VA",
        "postalCode": "20148",
        "coordinates": {
            "lat": 0,
            "lng": 0
        }
    },
    {
        "address1": "25946 Sarazen Dr",
        "address2": "",
        "city": "Chantilly",
        "state": "VA",
        "postalCode": "20152",
        "coordinates": {
            "lat": 0,
            "lng": 0
        }
    },
    {
        "address1": "25592 Upper Clubhouse Dr",
        "address2": "",
        "city": "Chantilly",
        "state": "VA",
        "postalCode": "20152",
        "coordinates": {
            "lat": 0,
            "lng": 0
        }
    },
    {
        "address1": "43715 Mink Meadows St",
        "address2": "",
        "city": "Chantilly",
        "state": "VA",
        "postalCode": "20152",
        "coordinates": {
            "lat": 0,
            "lng": 0
        }
    },
    {
        "address1": "43341 Royal Burkedale St",
        "address2": "",
        "city": "Chantilly",
        "state": "VA",
        "postalCode": "20152",
        "coordinates": {
            "lat": 0,
            "lng": 0
        }
    },
    {
        "address1": "25220 Lake Shore Sq #205",
        "address2": "",
        "city": "Chantilly",
        "state": "VA",
        "postalCode": "20152",
        "coordinates": {
            "lat": 0,
            "lng": 0
        }
    },
    {
        "address1": "43520 Emerald Ln",
        "address2": "",
        "city": "Chantilly",
        "state": "VA",
        "postalCode": "20152",
        "coordinates": {
            "lat": 0,
            "lng": 0
        }
    },
    {
        "address1": "43489 Interval St",
        "address2": "",
        "city": "Chantilly",
        "state": "VA",
        "postalCode": "20152",
        "coordinates": {
            "lat": 0,
            "lng": 0
        }
    },
    {
        "address1": "25941 Flintonbridge Dr",
        "address2": "",
        "city": "Chantilly",
        "state": "VA",
        "postalCode": "20152",
        "coordinates": {
            "lat": 0,
            "lng": 0
        }
    },
    {
        "address1": "43304 Jerpoint Ct",
        "address2": "",
        "city": "Chantilly",
        "state": "VA",
        "postalCode": "20152",
        "coordinates": {
            "lat": 0,
            "lng": 0
        }
    },
    {
        "address1": "195 Spencer Ter SE",
        "address2": "",
        "city": "Leesburg",
        "state": "VA",
        "postalCode": "20175",
        "coordinates": {
            "lat": 0,
            "lng": 0
        }
    },
    {
        "address1": "195 Spencer Ter SE",
        "address2": "",
        "city": "Leesburg",
        "state": "VA",
        "postalCode": "20175",
        "coordinates": {
            "lat": 0,
            "lng": 0
        }
    },
    {
        "address1": "651 Burnside Ter SE",
        "address2": "",
        "city": "Leesburg",
        "state": "VA",
        "postalCode": "20175",
        "coordinates": {
            "lat": 0,
            "lng": 0
        }
    },
    {
        "address1": "651 Burnside Ter SE",
        "address2": "",
        "city": "Leesburg",
        "state": "VA",
        "postalCode": "20175",
        "coordinates": {
            "lat": 0,
            "lng": 0
        }
    },
    {
        "address1": "129 Davis Ave SW",
        "address2": "",
        "city": "Leesburg",
        "state": "VA",
        "postalCode": "20175",
        "coordinates": {
            "lat": 0,
            "lng": 0
        }
    },
    {
        "address1": "129 Davis Ave SW",
        "address2": "",
        "city": "Leesburg",
        "state": "VA",
        "postalCode": "20175",
        "coordinates": {
            "lat": 0,
            "lng": 0
        }
    },
    {
        "address1": "508 Sunset View Ter SE",
        "address2": "",
        "city": "Leesburg",
        "state": "VA",
        "postalCode": "20175",
        "coordinates": {
            "lat": 0,
            "lng": 0
        }
    },
    {
        "address1": "508 Sunset View Ter SE",
        "address2": "",
        "city": "Leesburg",
        "state": "VA",
        "postalCode": "20175",
        "coordinates": {
            "lat": 0,
            "lng": 0
        }
    },
    {
        "address1": "108 Cagney Ter SE",
        "address2": "",
        "city": "Leesburg",
        "state": "VA",
        "postalCode": "20175",
        "coordinates": {
            "lat": 0,
            "lng": 0
        }
    },
    {
        "address1": "14572 Loyalty Rd",
        "address2": "",
        "city": "Leesburg",
        "state": "VA",
        "postalCode": "20176",
        "coordinates": {
            "lat": 0,
            "lng": 0
        }
    },
    {
        "address1": "14572 Loyalty Rd",
        "address2": "",
        "city": "Leesburg",
        "state": "VA",
        "postalCode": "20176",
        "coordinates": {
            "lat": 0,
            "lng": 0
        }
    },
    {
        "address1": "15905 Woolsthorpe Dr",
        "address2": "",
        "city": "Leesburg",
        "state": "VA",
        "postalCode": "20176",
        "coordinates": {
            "lat": 0,
            "lng": 0
        }
    },
    {
        "address1": "15905 Woolsthorpe Dr",
        "address2": "",
        "city": "Leesburg",
        "state": "VA",
        "postalCode": "20176",
        "coordinates": {
            "lat": 0,
            "lng": 0
        }
    },
    {
        "address1": "43932 Riverpoint Dr",
        "address2": "",
        "city": "Leesburg",
        "state": "VA",
        "postalCode": "20176",
        "coordinates": {
            "lat": 0,
            "lng": 0
        }
    },
    {
        "address1": "43932 Riverpoint Dr",
        "address2": "",
        "city": "Leesburg",
        "state": "VA",
        "postalCode": "20176",
        "coordinates": {
            "lat": 0,
            "lng": 0
        }
    },
    {
        "address1": "19026 Rocky Creek Dr",
        "address2": "",
        "city": "Leesburg",
        "state": "VA",
        "postalCode": "20176",
        "coordinates": {
            "lat": 0,
            "lng": 0
        }
    },
    {
        "address1": "19026 Rocky Creek Dr",
        "address2": "",
        "city": "Leesburg",
        "state": "VA",
        "postalCode": "20176",
        "coordinates": {
            "lat": 0,
            "lng": 0
        }
    },
    {
        "address1": "658 Ft Evans Rd NE",
        "address2": "",
        "city": "Leesburg",
        "state": "VA",
        "postalCode": "20176",
        "coordinates": {
            "lat": 0,
            "lng": 0
        }
    },
    {
        "address1": "806 N Watford St",
        "address2": "",
        "city": "Sterling",
        "state": "VA",
        "postalCode": "20164",
        "coordinates": {
            "lat": 0,
            "lng": 0
        }
    },
    {
        "address1": "806 N Watford St",
        "address2": "",
        "city": "Sterling",
        "state": "VA",
        "postalCode": "20164",
        "coordinates": {
            "lat": 0,
            "lng": 0
        }
    },
    {
        "address1": "712 Avondale Dr",
        "address2": "",
        "city": "Sterling",
        "state": "VA",
        "postalCode": "20164",
        "coordinates": {
            "lat": 0,
            "lng": 0
        }
    },
    {
        "address1": "712 Avondale Dr",
        "address2": "",
        "city": "Sterling",
        "state": "VA",
        "postalCode": "20164",
        "coordinates": {
            "lat": 0,
            "lng": 0
        }
    },
    {
        "address1": "218 Elizabeth Ct",
        "address2": "",
        "city": "Sterling",
        "state": "VA",
        "postalCode": "20164",
        "coordinates": {
            "lat": 0,
            "lng": 0
        }
    },
    {
        "address1": "218 Elizabeth Ct",
        "address2": "",
        "city": "Sterling",
        "state": "VA",
        "postalCode": "20164",
        "coordinates": {
            "lat": 0,
            "lng": 0
        }
    },
    {
        "address1": "46780 Southern Oaks Ter #T",
        "address2": "",
        "city": "Sterling",
        "state": "VA",
        "postalCode": "20164",
        "coordinates": {
            "lat": 0,
            "lng": 0
        }
    },
    {
        "address1": "46780 Southern Oaks Ter #T",
        "address2": "",
        "city": "Sterling",
        "state": "VA",
        "postalCode": "20164",
        "coordinates": {
            "lat": 0,
            "lng": 0
        }
    },
    {
        "address1": "46710 Bullfinch Sq",
        "address2": "",
        "city": "Sterling",
        "state": "VA",
        "postalCode": "20164",
        "coordinates": {
            "lat": 0,
            "lng": 0
        }
    },
    {
        "address1": "20935 Sandian Ter",
        "address2": "",
        "city": "Sterling",
        "state": "VA",
        "postalCode": "20165",
        "coordinates": {
            "lat": 0,
            "lng": 0
        }
    },
    {
        "address1": "20935 Sandian Ter",
        "address2": "",
        "city": "Sterling",
        "state": "VA",
        "postalCode": "20165",
        "coordinates": {
            "lat": 0,
            "lng": 0
        }
    },
    {
        "address1": "46509 Lynnhaven Sq",
        "address2": "",
        "city": "Sterling",
        "state": "VA",
        "postalCode": "20165",
        "coordinates": {
            "lat": 0,
            "lng": 0
        }
    },
    {
        "address1": "46509 Lynnhaven Sq",
        "address2": "",
        "city": "Sterling",
        "state": "VA",
        "postalCode": "20165",
        "coordinates": {
            "lat": 0,
            "lng": 0
        }
    },
    {
        "address1": "19385 Youngs Cliff Rd",
        "address2": "",
        "city": "Sterling",
        "state": "VA",
        "postalCode": "20165",
        "coordinates": {
            "lat": 0,
            "lng": 0
        }
    },
    {
        "address1": "19385 Youngs Cliff Rd",
        "address2": "",
        "city": "Sterling",
        "state": "VA",
        "postalCode": "20165",
        "coordinates": {
            "lat": 0,
            "lng": 0
        }
    },
    {
        "address1": "20315 Burnley Sq",
        "address2": "",
        "city": "Sterling",
        "state": "VA",
        "postalCode": "20165",
        "coordinates": {
            "lat": 0,
            "lng": 0
        }
    },
    {
        "address1": "20315 Burnley Sq",
        "address2": "",
        "city": "Sterling",
        "state": "VA",
        "postalCode": "20165",
        "coordinates": {
            "lat": 0,
            "lng": 0
        }
    },
    {
        "address1": "46671 Ashmere Sq",
        "address2": "",
        "city": "Sterling",
        "state": "VA",
        "postalCode": "20165",
        "coordinates": {
            "lat": 0,
            "lng": 0
        }
    },
    {
        "address1": "10151 Strawflower Ln",
        "address2": "",
        "city": "Manassas",
        "state": "VA",
        "postalCode": "20110",
        "coordinates": {
            "lat": 0,
            "lng": 0
        }
    },
    {
        "address1": "10151 Strawflower Ln",
        "address2": "",
        "city": "Manassas",
        "state": "VA",
        "postalCode": "20110",
        "coordinates": {
            "lat": 0,
            "lng": 0
        }
    },
    {
        "address1": "9901 Hawthorn Hill Ct",
        "address2": "",
        "city": "Manassas",
        "state": "VA",
        "postalCode": "20110",
        "coordinates": {
            "lat": 0,
            "lng": 0
        }
    },
    {
        "address1": "9901 Hawthorn Hill Ct",
        "address2": "",
        "city": "Manassas",
        "state": "VA",
        "postalCode": "20110",
        "coordinates": {
            "lat": 0,
            "lng": 0
        }
    },
    {
        "address1": "8418 Mckenzie Cir",
        "address2": "",
        "city": "Manassas",
        "state": "VA",
        "postalCode": "20110",
        "coordinates": {
            "lat": 0,
            "lng": 0
        }
    },
    {
        "address1": "8418 Mckenzie Cir",
        "address2": "",
        "city": "Manassas",
        "state": "VA",
        "postalCode": "20110",
        "coordinates": {
            "lat": 0,
            "lng": 0
        }
    },
    {
        "address1": "9429 Stonewall Rd",
        "address2": "",
        "city": "Manassas",
        "state": "VA",
        "postalCode": "20110",
        "coordinates": {
            "lat": 0,
            "lng": 0
        }
    },
    {
        "address1": "9429 Stonewall Rd",
        "address2": "",
        "city": "Manassas",
        "state": "VA",
        "postalCode": "20110",
        "coordinates": {
            "lat": 0,
            "lng": 0
        }
    },
    {
        "address1": "9004 Weir St",
        "address2": "",
        "city": "Manassas",
        "state": "VA",
        "postalCode": "20110",
        "coordinates": {
            "lat": 0,
            "lng": 0
        }
    },
    {
        "address1": "12027 Infantry Ln",
        "address2": "",
        "city": "Bristow",
        "state": "VA",
        "postalCode": "20136",
        "coordinates": {
            "lat": 0,
            "lng": 0
        }
    },
    {
        "address1": "8665 Horncastle Ct",
        "address2": "",
        "city": "Bristow",
        "state": "VA",
        "postalCode": "20136",
        "coordinates": {
            "lat": 0,
            "lng": 0
        }
    },
    {
        "address1": "13736 Denham Way",
        "address2": "",
        "city": "Bristow",
        "state": "VA",
        "postalCode": "20136",
        "coordinates": {
            "lat": 0,
            "lng": 0
        }
    },
    {
        "address1": "12530 Haltwhistle Ct",
        "address2": "",
        "city": "Bristow",
        "state": "VA",
        "postalCode": "20136",
        "coordinates": {
            "lat": 0,
            "lng": 0
        }
    },
    {
        "address1": "13519 Grouserun Ln",
        "address2": "",
        "city": "Bristow",
        "state": "VA",
        "postalCode": "20136",
        "coordinates": {
            "lat": 0,
            "lng": 0
        }
    },
    {
        "address1": "11914 Benton Lake Rd",
        "address2": "",
        "city": "Bristow",
        "state": "VA",
        "postalCode": "20136",
        "coordinates": {
            "lat": 0,
            "lng": 0
        }
    },
    {
        "address1": "8622 Ellesmere Way",
        "address2": "",
        "city": "Bristow",
        "state": "VA",
        "postalCode": "20136",
        "coordinates": {
            "lat": 0,
            "lng": 0
        }
    },
    {
        "address1": "13472 Wansteadt Pl",
        "address2": "",
        "city": "Bristow",
        "state": "VA",
        "postalCode": "20136",
        "coordinates": {
            "lat": 0,
            "lng": 0
        }
    },
    {
        "address1": "9305 Branch Park Trl",
        "address2": "",
        "city": "Bristow",
        "state": "VA",
        "postalCode": "20136",
        "coordinates": {
            "lat": 0,
            "lng": 0
        }
    },
    {
        "address1": "6372 E Pdgrims Rest Rd",
        "address2": "",
        "city": "Gainesville",
        "state": "VA",
        "postalCode": "20155",
        "coordinates": {
            "lat": 0,
            "lng": 0
        }
    },
    {
        "address1": "17683 Glass Ridge Pl",
        "address2": "",
        "city": "Gainesville",
        "state": "VA",
        "postalCode": "20155",
        "coordinates": {
            "lat": 0,
            "lng": 0
        }
    },
    {
        "address1": "7208 Bladen Pl",
        "address2": "",
        "city": "Gainesville",
        "state": "VA",
        "postalCode": "20155",
        "coordinates": {
            "lat": 0,
            "lng": 0
        }
    },
    {
        "address1": "7007 Little Thames Dr",
        "address2": "",
        "city": "Gainesville",
        "state": "VA",
        "postalCode": "20155",
        "coordinates": {
            "lat": 0,
            "lng": 0
        }
    },
    {
        "address1": "8005 Tysons Oaks Ct",
        "address2": "",
        "city": "Gainesville",
        "state": "VA",
        "postalCode": "20155",
        "coordinates": {
            "lat": 0,
            "lng": 0
        }
    },
    {
        "address1": "13550 Heathcote Blvd",
        "address2": "",
        "city": "Gainesville",
        "state": "VA",
        "postalCode": "20155",
        "coordinates": {
            "lat": 0,
            "lng": 0
        }
    },
    {
        "address1": "14741 Deming Dr",
        "address2": "",
        "city": "Gainesville",
        "state": "VA",
        "postalCode": "20155",
        "coordinates": {
            "lat": 0,
            "lng": 0
        }
    },
    {
        "address1": "13859 Crabtree Way",
        "address2": "",
        "city": "Gainesville",
        "state": "VA",
        "postalCode": "20155",
        "coordinates": {
            "lat": 0,
            "lng": 0
        }
    },
    {
        "address1": "15698 Spyglass Hill Loop",
        "address2": "",
        "city": "Gainesville",
        "state": "VA",
        "postalCode": "20155",
        "coordinates": {
            "lat": 0,
            "lng": 0
        }
    },
    {
        "address1": "8835 Morrisania Mews",
        "address2": "",
        "city": "Manassas",
        "state": "VA",
        "postalCode": "20109",
        "coordinates": {
            "lat": 0,
            "lng": 0
        }
    },
    {
        "address1": "8835 Morrisania Mews",
        "address2": "",
        "city": "Manassas",
        "state": "VA",
        "postalCode": "20109",
        "coordinates": {
            "lat": 0,
            "lng": 0
        }
    },
    {
        "address1": "8042 Portwood Turn",
        "address2": "",
        "city": "Manassas",
        "state": "VA",
        "postalCode": "20109",
        "coordinates": {
            "lat": 0,
            "lng": 0
        }
    },
    {
        "address1": "8042 Portwood Turn",
        "address2": "",
        "city": "Manassas",
        "state": "VA",
        "postalCode": "20109",
        "coordinates": {
            "lat": 0,
            "lng": 0
        }
    },
    {
        "address1": "10489 Butterfield St",
        "address2": "",
        "city": "Manassas",
        "state": "VA",
        "postalCode": "20109",
        "coordinates": {
            "lat": 0,
            "lng": 0
        }
    },
    {
        "address1": "10489 Butterfield St",
        "address2": "",
        "city": "Manassas",
        "state": "VA",
        "postalCode": "20109",
        "coordinates": {
            "lat": 0,
            "lng": 0
        }
    },
    {
        "address1": "7824 Flager Cir",
        "address2": "",
        "city": "Manassas",
        "state": "VA",
        "postalCode": "20109",
        "coordinates": {
            "lat": 0,
            "lng": 0
        }
    },
    {
        "address1": "7824 Flager Cir",
        "address2": "",
        "city": "Manassas",
        "state": "VA",
        "postalCode": "20109",
        "coordinates": {
            "lat": 0,
            "lng": 0
        }
    },
    {
        "address1": "10019 Copeland Dr",
        "address2": "",
        "city": "Manassas",
        "state": "VA",
        "postalCode": "20109",
        "coordinates": {
            "lat": 0,
            "lng": 0
        }
    },
    {
        "address1": "9216 Matthew Dr",
        "address2": "",
        "city": "Manassas",
        "state": "VA",
        "postalCode": "20111",
        "coordinates": {
            "lat": 0,
            "lng": 0
        }
    },
    {
        "address1": "9216 Matthew Dr",
        "address2": "",
        "city": "Manassas",
        "state": "VA",
        "postalCode": "20111",
        "coordinates": {
            "lat": 0,
            "lng": 0
        }
    },
    {
        "address1": "7988 Blooms Rd",
        "address2": "",
        "city": "Manassas",
        "state": "VA",
        "postalCode": "20111",
        "coordinates": {
            "lat": 0,
            "lng": 0
        }
    },
    {
        "address1": "7988 Blooms Rd",
        "address2": "",
        "city": "Manassas",
        "state": "VA",
        "postalCode": "20111",
        "coordinates": {
            "lat": 0,
            "lng": 0
        }
    },
    {
        "address1": "8136 Rainwater Cir",
        "address2": "",
        "city": "Manassas",
        "state": "VA",
        "postalCode": "20111",
        "coordinates": {
            "lat": 0,
            "lng": 0
        }
    },
    {
        "address1": "8136 Rainwater Cir",
        "address2": "",
        "city": "Manassas",
        "state": "VA",
        "postalCode": "20111",
        "coordinates": {
            "lat": 0,
            "lng": 0
        }
    },
    {
        "address1": "6405 Yates Ford Rd",
        "address2": "",
        "city": "Manassas",
        "state": "VA",
        "postalCode": "20111",
        "coordinates": {
            "lat": 0,
            "lng": 0
        }
    },
    {
        "address1": "6405 Yates Ford Rd",
        "address2": "",
        "city": "Manassas",
        "state": "VA",
        "postalCode": "20111",
        "coordinates": {
            "lat": 0,
            "lng": 0
        }
    },
    {
        "address1": "7016 Bruin Ct",
        "address2": "",
        "city": "Manassas",
        "state": "VA",
        "postalCode": "20111",
        "coordinates": {
            "lat": 0,
            "lng": 0
        }
    },
    {
        "address1": "13462 Lock Loop",
        "address2": "",
        "city": "Woodbridge",
        "state": "VA",
        "postalCode": "22192",
        "coordinates": {
            "lat": 0,
            "lng": 0
        }
    },
    {
        "address1": "13462 Lock Loop",
        "address2": "",
        "city": "Woodbridge",
        "state": "VA",
        "postalCode": "22192",
        "coordinates": {
            "lat": 0,
            "lng": 0
        }
    },
    {
        "address1": "12909 Titania Way",
        "address2": "",
        "city": "Woodbridge",
        "state": "VA",
        "postalCode": "22192",
        "coordinates": {
            "lat": 0,
            "lng": 0
        }
    },
    {
        "address1": "12909 Titania Way",
        "address2": "",
        "city": "Woodbridge",
        "state": "VA",
        "postalCode": "22192",
        "coordinates": {
            "lat": 0,
            "lng": 0
        }
    },
    {
        "address1": "12453 Cavalier Dr",
        "address2": "",
        "city": "Woodbridge",
        "state": "VA",
        "postalCode": "22192",
        "coordinates": {
            "lat": 0,
            "lng": 0
        }
    },
    {
        "address1": "12453 Cavalier Dr",
        "address2": "",
        "city": "Woodbridge",
        "state": "VA",
        "postalCode": "22192",
        "coordinates": {
            "lat": 0,
            "lng": 0
        }
    },
    {
        "address1": "2932 Madeira Ct",
        "address2": "",
        "city": "Woodbridge",
        "state": "VA",
        "postalCode": "22192",
        "coordinates": {
            "lat": 0,
            "lng": 0
        }
    },
    {
        "address1": "2932 Madeira Ct",
        "address2": "",
        "city": "Woodbridge",
        "state": "VA",
        "postalCode": "22192",
        "coordinates": {
            "lat": 0,
            "lng": 0
        }
    },
    {
        "address1": "12703 Lotte Dr",
        "address2": "",
        "city": "Woodbridge",
        "state": "VA",
        "postalCode": "22192",
        "coordinates": {
            "lat": 0,
            "lng": 0
        }
    },
    {
        "address1": "13338 Paramount Ln",
        "address2": "",
        "city": "Woodbridge",
        "state": "VA",
        "postalCode": "22193",
        "coordinates": {
            "lat": 0,
            "lng": 0
        }
    },
    {
        "address1": "13338 Paramount Ln",
        "address2": "",
        "city": "Woodbridge",
        "state": "VA",
        "postalCode": "22193",
        "coordinates": {
            "lat": 0,
            "lng": 0
        }
    },
    {
        "address1": "13721 Greenbriar Dr",
        "address2": "",
        "city": "Woodbridge",
        "state": "VA",
        "postalCode": "22193",
        "coordinates": {
            "lat": 0,
            "lng": 0
        }
    },
    {
        "address1": "13721 Greenbriar Dr",
        "address2": "",
        "city": "Woodbridge",
        "state": "VA",
        "postalCode": "22193",
        "coordinates": {
            "lat": 0,
            "lng": 0
        }
    },
    {
        "address1": "13358 Pocono Ct",
        "address2": "",
        "city": "Woodbridge",
        "state": "VA",
        "postalCode": "22193",
        "coordinates": {
            "lat": 0,
            "lng": 0
        }
    },
    {
        "address1": "13358 Pocono Ct",
        "address2": "",
        "city": "Woodbridge",
        "state": "VA",
        "postalCode": "22193",
        "coordinates": {
            "lat": 0,
            "lng": 0
        }
    },
    {
        "address1": "3474 Beale Ct",
        "address2": "",
        "city": "Woodbridge",
        "state": "VA",
        "postalCode": "22193",
        "coordinates": {
            "lat": 0,
            "lng": 0
        }
    },
    {
        "address1": "3474 Beale Ct",
        "address2": "",
        "city": "Woodbridge",
        "state": "VA",
        "postalCode": "22193",
        "coordinates": {
            "lat": 0,
            "lng": 0
        }
    },
    {
        "address1": "4370 Welsh Ln",
        "address2": "",
        "city": "Woodbridge",
        "state": "VA",
        "postalCode": "22193",
        "coordinates": {
            "lat": 0,
            "lng": 0
        }
    },
    {
        "address1": "12218 Corter Ave",
        "address2": "",
        "city": "Fredericksburg",
        "state": "VA",
        "postalCode": "22407",
        "coordinates": {
            "lat": 0,
            "lng": 0
        }
    },
    {
        "address1": "12218 Corter Ave",
        "address2": "",
        "city": "Fredericksburg",
        "state": "VA",
        "postalCode": "22407",
        "coordinates": {
            "lat": 0,
            "lng": 0
        }
    },
    {
        "address1": "12218 Corter Ave",
        "address2": "",
        "city": "Fredericksburg",
        "state": "VA",
        "postalCode": "22407",
        "coordinates": {
            "lat": 0,
            "lng": 0
        }
    },
    {
        "address1": "12218 Corter Ave",
        "address2": "",
        "city": "Fredericksburg",
        "state": "VA",
        "postalCode": "22407",
        "coordinates": {
            "lat": 0,
            "lng": 0
        }
    },
    {
        "address1": "12305 Glade Dr",
        "address2": "",
        "city": "Fredericksburg",
        "state": "VA",
        "postalCode": "22407",
        "coordinates": {
            "lat": 0,
            "lng": 0
        }
    },
    {
        "address1": "12305 Glade Dr",
        "address2": "",
        "city": "Fredericksburg",
        "state": "VA",
        "postalCode": "22407",
        "coordinates": {
            "lat": 0,
            "lng": 0
        }
    },
    {
        "address1": "5400 S Branch Rd",
        "address2": "",
        "city": "Fredericksburg",
        "state": "VA",
        "postalCode": "22407",
        "coordinates": {
            "lat": 0,
            "lng": 0
        }
    },
    {
        "address1": "5400 S Branch Rd",
        "address2": "",
        "city": "Fredericksburg",
        "state": "VA",
        "postalCode": "22407",
        "coordinates": {
            "lat": 0,
            "lng": 0
        }
    },
    {
        "address1": "10606 Wakeman Dr",
        "address2": "",
        "city": "Fredericksburg",
        "state": "VA",
        "postalCode": "22407",
        "coordinates": {
            "lat": 0,
            "lng": 0
        }
    },
    {
        "address1": "10524 Coles Ln",
        "address2": "",
        "city": "Fredericksburg",
        "state": "VA",
        "postalCode": "22408",
        "coordinates": {
            "lat": 0,
            "lng": 0
        }
    },
    {
        "address1": "10524 Coles Ln",
        "address2": "",
        "city": "Fredericksburg",
        "state": "VA",
        "postalCode": "22408",
        "coordinates": {
            "lat": 0,
            "lng": 0
        }
    },
    {
        "address1": "8810 New Castle Ct",
        "address2": "",
        "city": "Fredericksburg",
        "state": "VA",
        "postalCode": "22408",
        "coordinates": {
            "lat": 0,
            "lng": 0
        }
    },
    {
        "address1": "8810 New Castle Ct",
        "address2": "",
        "city": "Fredericksburg",
        "state": "VA",
        "postalCode": "22408",
        "coordinates": {
            "lat": 0,
            "lng": 0
        }
    },
    {
        "address1": "7900 S Woods Dr",
        "address2": "",
        "city": "Fredericksburg",
        "state": "VA",
        "postalCode": "22408",
        "coordinates": {
            "lat": 0,
            "lng": 0
        }
    },
    {
        "address1": "7900 S Woods Dr",
        "address2": "",
        "city": "Fredericksburg",
        "state": "VA",
        "postalCode": "22408",
        "coordinates": {
            "lat": 0,
            "lng": 0
        }
    },
    {
        "address1": "3815 Chapman Dr",
        "address2": "",
        "city": "Fredericksburg",
        "state": "VA",
        "postalCode": "22408",
        "coordinates": {
            "lat": 0,
            "lng": 0
        }
    },
    {
        "address1": "3815 Chapman Dr",
        "address2": "",
        "city": "Fredericksburg",
        "state": "VA",
        "postalCode": "22408",
        "coordinates": {
            "lat": 0,
            "lng": 0
        }
    },
    {
        "address1": "4719 River Crest Ct",
        "address2": "",
        "city": "Fredericksburg",
        "state": "VA",
        "postalCode": "22408",
        "coordinates": {
            "lat": 0,
            "lng": 0
        }
    },
    {
        "address1": "522 Ferry Rd",
        "address2": "",
        "city": "Fredericksburg",
        "state": "VA",
        "postalCode": "22405",
        "coordinates": {
            "lat": 0,
            "lng": 0
        }
    },
    {
        "address1": "522 Ferry Rd",
        "address2": "",
        "city": "Fredericksburg",
        "state": "VA",
        "postalCode": "22405",
        "coordinates": {
            "lat": 0,
            "lng": 0
        }
    },
    {
        "address1": "20 Brentwood Ln",
        "address2": "",
        "city": "Fredericksburg",
        "state": "VA",
        "postalCode": "22405",
        "coordinates": {
            "lat": 0,
            "lng": 0
        }
    },
    {
        "address1": "20 Brentwood Ln",
        "address2": "",
        "city": "Fredericksburg",
        "state": "VA",
        "postalCode": "22405",
        "coordinates": {
            "lat": 0,
            "lng": 0
        }
    },
    {
        "address1": "7 Myers Dr",
        "address2": "",
        "city": "Fredericksburg",
        "state": "VA",
        "postalCode": "22405",
        "coordinates": {
            "lat": 0,
            "lng": 0
        }
    },
    {
        "address1": "7 Myers Dr",
        "address2": "",
        "city": "Fredericksburg",
        "state": "VA",
        "postalCode": "22405",
        "coordinates": {
            "lat": 0,
            "lng": 0
        }
    },
    {
        "address1": "43 Willow Branch Pl",
        "address2": "",
        "city": "Fredericksburg",
        "state": "VA",
        "postalCode": "22405",
        "coordinates": {
            "lat": 0,
            "lng": 0
        }
    },
    {
        "address1": "43 Willow Branch Pl",
        "address2": "",
        "city": "Fredericksburg",
        "state": "VA",
        "postalCode": "22405",
        "coordinates": {
            "lat": 0,
            "lng": 0
        }
    },
    {
        "address1": "507 Jett St",
        "address2": "",
        "city": "Fredericksburg",
        "state": "VA",
        "postalCode": "22405",
        "coordinates": {
            "lat": 0,
            "lng": 0
        }
    },
    {
        "address1": "14 Bridgeport Cir",
        "address2": "",
        "city": "Stafford",
        "state": "VA",
        "postalCode": "22554",
        "coordinates": {
            "lat": 0,
            "lng": 0
        }
    },
    {
        "address1": "14 Bridgeport Cir",
        "address2": "",
        "city": "Stafford",
        "state": "VA",
        "postalCode": "22554",
        "coordinates": {
            "lat": 0,
            "lng": 0
        }
    },
    {
        "address1": "217 Willow Landing Rd #1",
        "address2": "",
        "city": "Stafford",
        "state": "VA",
        "postalCode": "22554",
        "coordinates": {
            "lat": 0,
            "lng": 0
        }
    },
    {
        "address1": "217 Willow Landing Rd #1",
        "address2": "",
        "city": "Stafford",
        "state": "VA",
        "postalCode": "22554",
        "coordinates": {
            "lat": 0,
            "lng": 0
        }
    },
    {
        "address1": "65 Stonegate Pl",
        "address2": "",
        "city": "Stafford",
        "state": "VA",
        "postalCode": "22554",
        "coordinates": {
            "lat": 0,
            "lng": 0
        }
    },
    {
        "address1": "65 Stonegate Pl",
        "address2": "",
        "city": "Stafford",
        "state": "VA",
        "postalCode": "22554",
        "coordinates": {
            "lat": 0,
            "lng": 0
        }
    },
    {
        "address1": "78 Acadia St",
        "address2": "",
        "city": "Stafford",
        "state": "VA",
        "postalCode": "22554",
        "coordinates": {
            "lat": 0,
            "lng": 0
        }
    },
    {
        "address1": "78 Acadia St",
        "address2": "",
        "city": "Stafford",
        "state": "VA",
        "postalCode": "22554",
        "coordinates": {
            "lat": 0,
            "lng": 0
        }
    },
    {
        "address1": "58 Sentinel Ridge Ln",
        "address2": "",
        "city": "Stafford",
        "state": "VA",
        "postalCode": "22554",
        "coordinates": {
            "lat": 0,
            "lng": 0
        }
    },
    {
        "address1": "652 Mountain Heights Rd",
        "address2": "",
        "city": "Front Royal",
        "state": "VA",
        "postalCode": "22630",
        "coordinates": {
            "lat": 0,
            "lng": 0
        }
    },
    {
        "address1": "293 Crooked Run Rd",
        "address2": "",
        "city": "Front Royal",
        "state": "VA",
        "postalCode": "22630",
        "coordinates": {
            "lat": 0,
            "lng": 0
        }
    },
    {
        "address1": "967 High Knob Rd",
        "address2": "",
        "city": "Front Royal",
        "state": "VA",
        "postalCode": "22630",
        "coordinates": {
            "lat": 0,
            "lng": 0
        }
    },
    {
        "address1": "64 Tara Rd",
        "address2": "",
        "city": "Front Royal",
        "state": "VA",
        "postalCode": "22630",
        "coordinates": {
            "lat": 0,
            "lng": 0
        }
    },
    {
        "address1": "311 Lee St",
        "address2": "",
        "city": "Front Royal",
        "state": "VA",
        "postalCode": "22630",
        "coordinates": {
            "lat": 0,
            "lng": 0
        }
    },
    {
        "address1": "2799 Rivermont Dr",
        "address2": "",
        "city": "Front Royal",
        "state": "VA",
        "postalCode": "22630",
        "coordinates": {
            "lat": 0,
            "lng": 0
        }
    },
    {
        "address1": "303 Blue Ridge Ave",
        "address2": "",
        "city": "Front Royal",
        "state": "VA",
        "postalCode": "22630",
        "coordinates": {
            "lat": 0,
            "lng": 0
        }
    },
    {
        "address1": "219 Midway Ave",
        "address2": "",
        "city": "Front Royal",
        "state": "VA",
        "postalCode": "22630",
        "coordinates": {
            "lat": 0,
            "lng": 0
        }
    },
    {
        "address1": "117 Washington Ave",
        "address2": "",
        "city": "Front Royal",
        "state": "VA",
        "postalCode": "22630",
        "coordinates": {
            "lat": 0,
            "lng": 0
        }
    },
    {
        "address1": "104 Williamson Rd",
        "address2": "",
        "city": "Winchester",
        "state": "VA",
        "postalCode": "22602",
        "coordinates": {
            "lat": 0,
            "lng": 0
        }
    },
    {
        "address1": "111 Kinross Dr",
        "address2": "",
        "city": "Winchester",
        "state": "VA",
        "postalCode": "22602",
        "coordinates": {
            "lat": 0,
            "lng": 0
        }
    },
    {
        "address1": "112 Huntcrest Cir",
        "address2": "",
        "city": "Winchester",
        "state": "VA",
        "postalCode": "22602",
        "coordinates": {
            "lat": 0,
            "lng": 0
        }
    },
    {
        "address1": "106 Stanley Cir",
        "address2": "",
        "city": "Winchester",
        "state": "VA",
        "postalCode": "22602",
        "coordinates": {
            "lat": 0,
            "lng": 0
        }
    },
    {
        "address1": "137 Orchard Dr",
        "address2": "",
        "city": "Winchester",
        "state": "VA",
        "postalCode": "22602",
        "coordinates": {
            "lat": 0,
            "lng": 0
        }
    },
    {
        "address1": "111 Abbey Rd",
        "address2": "",
        "city": "Winchester",
        "state": "VA",
        "postalCode": "22602",
        "coordinates": {
            "lat": 0,
            "lng": 0
        }
    },
    {
        "address1": "540 Laurelwood Dr",
        "address2": "",
        "city": "Winchester",
        "state": "VA",
        "postalCode": "22602",
        "coordinates": {
            "lat": 0,
            "lng": 0
        }
    },
    {
        "address1": "160 Stuart Dr",
        "address2": "",
        "city": "Winchester",
        "state": "VA",
        "postalCode": "22602",
        "coordinates": {
            "lat": 0,
            "lng": 0
        }
    },
    {
        "address1": "204 Rosewood Ln",
        "address2": "",
        "city": "Winchester",
        "state": "VA",
        "postalCode": "22602",
        "coordinates": {
            "lat": 0,
            "lng": 0
        }
    },
    {
        "address1": "2304 Maplewood Dr",
        "address2": "",
        "city": "Culpeper",
        "state": "VA",
        "postalCode": "22701",
        "coordinates": {
            "lat": 0,
            "lng": 0
        }
    },
    {
        "address1": "8049 Kirtley Trl",
        "address2": "",
        "city": "Culpeper",
        "state": "VA",
        "postalCode": "22701",
        "coordinates": {
            "lat": 0,
            "lng": 0
        }
    },
    {
        "address1": "7292 James Monroe Hwy",
        "address2": "",
        "city": "Culpeper",
        "state": "VA",
        "postalCode": "22701",
        "coordinates": {
            "lat": 0,
            "lng": 0
        }
    },
    {
        "address1": "8436 Kirtley Trl",
        "address2": "",
        "city": "Culpeper",
        "state": "VA",
        "postalCode": "22701",
        "coordinates": {
            "lat": 0,
            "lng": 0
        }
    },
    {
        "address1": "3915 Thoroughfare Rd",
        "address2": "",
        "city": "Culpeper",
        "state": "VA",
        "postalCode": "22701",
        "coordinates": {
            "lat": 0,
            "lng": 0
        }
    },
    {
        "address1": "6357 Glebe Way",
        "address2": "",
        "city": "Culpeper",
        "state": "VA",
        "postalCode": "22701",
        "coordinates": {
            "lat": 0,
            "lng": 0
        }
    },
    {
        "address1": "7490 Kirtley Trl",
        "address2": "",
        "city": "Culpeper",
        "state": "VA",
        "postalCode": "22701",
        "coordinates": {
            "lat": 0,
            "lng": 0
        }
    },
    {
        "address1": "17289 N Merrimac Rd",
        "address2": "",
        "city": "Culpeper",
        "state": "VA",
        "postalCode": "22701",
        "coordinates": {
            "lat": 0,
            "lng": 0
        }
    },
    {
        "address1": "6211 Glebe Way",
        "address2": "",
        "city": "Culpeper",
        "state": "VA",
        "postalCode": "22701",
        "coordinates": {
            "lat": 0,
            "lng": 0
        }
    },
    {
        "address1": "319 N Mill Rd",
        "address2": "",
        "city": "Salem",
        "state": "VA",
        "postalCode": "24153",
        "coordinates": {
            "lat": 0,
            "lng": 0
        }
    },
    {
        "address1": "912 Gatling Ln",
        "address2": "",
        "city": "Salem",
        "state": "VA",
        "postalCode": "24153",
        "coordinates": {
            "lat": 0,
            "lng": 0
        }
    },
    {
        "address1": "1945 Roanoke Blvd",
        "address2": "",
        "city": "Salem",
        "state": "VA",
        "postalCode": "24153",
        "coordinates": {
            "lat": 0,
            "lng": 0
        }
    },
    {
        "address1": "1501 Ashley Dr",
        "address2": "",
        "city": "Salem",
        "state": "VA",
        "postalCode": "24153",
        "coordinates": {
            "lat": 0,
            "lng": 0
        }
    },
    {
        "address1": "729 Florida St",
        "address2": "",
        "city": "Salem",
        "state": "VA",
        "postalCode": "24153",
        "coordinates": {
            "lat": 0,
            "lng": 0
        }
    },
    {
        "address1": "622 Cleveland Ave",
        "address2": "",
        "city": "Salem",
        "state": "VA",
        "postalCode": "24153",
        "coordinates": {
            "lat": 0,
            "lng": 0
        }
    },
    {
        "address1": "5164 Glenvar Heights Blvd",
        "address2": "",
        "city": "Salem",
        "state": "VA",
        "postalCode": "24153",
        "coordinates": {
            "lat": 0,
            "lng": 0
        }
    },
    {
        "address1": "4710 Lake Front Dr",
        "address2": "",
        "city": "Salem",
        "state": "VA",
        "postalCode": "24153",
        "coordinates": {
            "lat": 0,
            "lng": 0
        }
    },
    {
        "address1": "5007 Bradshaw Rd",
        "address2": "",
        "city": "Salem",
        "state": "VA",
        "postalCode": "24153",
        "coordinates": {
            "lat": 0,
            "lng": 0
        }
    },
    {
        "address1": "2670 Barrenridge Rd",
        "address2": "",
        "city": "Staunton",
        "state": "VA",
        "postalCode": "24401",
        "coordinates": {
            "lat": 0,
            "lng": 0
        }
    },
    {
        "address1": "47 Seymour Cir",
        "address2": "",
        "city": "Staunton",
        "state": "VA",
        "postalCode": "24401",
        "coordinates": {
            "lat": 0,
            "lng": 0
        }
    },
    {
        "address1": "3002 Old Greenville Rd",
        "address2": "",
        "city": "Staunton",
        "state": "VA",
        "postalCode": "24401",
        "coordinates": {
            "lat": 0,
            "lng": 0
        }
    },
    {
        "address1": "2850 Old Greenville Rd",
        "address2": "",
        "city": "Staunton",
        "state": "VA",
        "postalCode": "24401",
        "coordinates": {
            "lat": 0,
            "lng": 0
        }
    },
    {
        "address1": "180 Howardsville Rd",
        "address2": "",
        "city": "Staunton",
        "state": "VA",
        "postalCode": "24401",
        "coordinates": {
            "lat": 0,
            "lng": 0
        }
    },
    {
        "address1": "1170 Stuarts Draft Hwy",
        "address2": "",
        "city": "Staunton",
        "state": "VA",
        "postalCode": "24401",
        "coordinates": {
            "lat": 0,
            "lng": 0
        }
    },
    {
        "address1": "2028 Old Greenville Rd",
        "address2": "",
        "city": "Staunton",
        "state": "VA",
        "postalCode": "24401",
        "coordinates": {
            "lat": 0,
            "lng": 0
        }
    },
    {
        "address1": "2723 Lee Jackson Hwy",
        "address2": "",
        "city": "Staunton",
        "state": "VA",
        "postalCode": "24401",
        "coordinates": {
            "lat": 0,
            "lng": 0
        }
    },
    {
        "address1": "438 Chestnut Ridge Rd",
        "address2": "",
        "city": "Staunton",
        "state": "VA",
        "postalCode": "24401",
        "coordinates": {
            "lat": 0,
            "lng": 0
        }
    },
    {
        "address1": "540 Hamlet Ave #3",
        "address2": "",
        "city": "Waynesboro",
        "state": "VA",
        "postalCode": "22980",
        "coordinates": {
            "lat": 0,
            "lng": 0
        }
    },
    {
        "address1": "776 E Side Hwy",
        "address2": "",
        "city": "Waynesboro",
        "state": "VA",
        "postalCode": "22980",
        "coordinates": {
            "lat": 0,
            "lng": 0
        }
    },
    {
        "address1": "14 Brook Cir",
        "address2": "",
        "city": "Waynesboro",
        "state": "VA",
        "postalCode": "22980",
        "coordinates": {
            "lat": 0,
            "lng": 0
        }
    },
    {
        "address1": "1220 3rd St",
        "address2": "",
        "city": "Waynesboro",
        "state": "VA",
        "postalCode": "22980",
        "coordinates": {
            "lat": 0,
            "lng": 0
        }
    },
    {
        "address1": "586 N Bath Ave",
        "address2": "",
        "city": "Waynesboro",
        "state": "VA",
        "postalCode": "22980",
        "coordinates": {
            "lat": 0,
            "lng": 0
        }
    },
    {
        "address1": "33 Farmside St",
        "address2": "",
        "city": "Waynesboro",
        "state": "VA",
        "postalCode": "22980",
        "coordinates": {
            "lat": 0,
            "lng": 0
        }
    },
    {
        "address1": "1272 Jefferson Hwy",
        "address2": "",
        "city": "Fishersville",
        "state": "VA",
        "postalCode": "22980",
        "coordinates": {
            "lat": 0,
            "lng": 0
        }
    },
    {
        "address1": "29 Heatwole Dr",
        "address2": "",
        "city": "Waynesboro",
        "state": "VA",
        "postalCode": "22980",
        "coordinates": {
            "lat": 0,
            "lng": 0
        }
    },
    {
        "address1": "57 Thomas Dr",
        "address2": "",
        "city": "Waynesboro",
        "state": "VA",
        "postalCode": "22980",
        "coordinates": {
            "lat": 0,
            "lng": 0
        }
    },
    {
        "address1": "146 Brandywine Ct",
        "address2": "",
        "city": "Charlottesville",
        "state": "VA",
        "postalCode": "22901",
        "coordinates": {
            "lat": 0,
            "lng": 0
        }
    },
    {
        "address1": "1185 Owensville Rd",
        "address2": "",
        "city": "Charlottesville",
        "state": "VA",
        "postalCode": "22901",
        "coordinates": {
            "lat": 0,
            "lng": 0
        }
    },
    {
        "address1": "134 Hessian Hills Way #APT 1",
        "address2": "",
        "city": "Charlottesville",
        "state": "VA",
        "postalCode": "22901",
        "coordinates": {
            "lat": 0,
            "lng": 0
        }
    },
    {
        "address1": "1160 Tennis Rd",
        "address2": "",
        "city": "Charlottesville",
        "state": "VA",
        "postalCode": "22901",
        "coordinates": {
            "lat": 0,
            "lng": 0
        }
    },
    {
        "address1": "1006 Park St",
        "address2": "",
        "city": "Charlottesville",
        "state": "VA",
        "postalCode": "22901",
        "coordinates": {
            "lat": 0,
            "lng": 0
        }
    },
    {
        "address1": "1025 Cottonwood Rd",
        "address2": "",
        "city": "Charlottesville",
        "state": "VA",
        "postalCode": "22901",
        "coordinates": {
            "lat": 0,
            "lng": 0
        }
    },
    {
        "address1": "1201 Lili Ln",
        "address2": "",
        "city": "Charlottesville",
        "state": "VA",
        "postalCode": "22901",
        "coordinates": {
            "lat": 0,
            "lng": 0
        }
    },
    {
        "address1": "3070 Morewood Ln",
        "address2": "",
        "city": "Charlottesville",
        "state": "VA",
        "postalCode": "22901",
        "coordinates": {
            "lat": 0,
            "lng": 0
        }
    },
    {
        "address1": "170 Georgetown Rd #A",
        "address2": "",
        "city": "Charlottesville",
        "state": "VA",
        "postalCode": "22901",
        "coordinates": {
            "lat": 0,
            "lng": 0
        }
    },
    {
        "address1": "Po Box 3668",
        "address2": "",
        "city": "Charlottesville",
        "state": "VA",
        "postalCode": "22903",
        "coordinates": {
            "lat": 0,
            "lng": 0
        }
    },
    {
        "address1": "810 Page St",
        "address2": "",
        "city": "Charlottesville",
        "state": "VA",
        "postalCode": "22903",
        "coordinates": {
            "lat": 0,
            "lng": 0
        }
    },
    {
        "address1": "201 Holly Dr",
        "address2": "",
        "city": "Charlottesville",
        "state": "VA",
        "postalCode": "22903",
        "coordinates": {
            "lat": 0,
            "lng": 0
        }
    },
    {
        "address1": "255 Colonnade Dr #34",
        "address2": "",
        "city": "Charlottesville",
        "state": "VA",
        "postalCode": "22903",
        "coordinates": {
            "lat": 0,
            "lng": 0
        }
    },
    {
        "address1": "163 Chancellor St",
        "address2": "",
        "city": "Charlottesville",
        "state": "VA",
        "postalCode": "22903",
        "coordinates": {
            "lat": 0,
            "lng": 0
        }
    },
    {
        "address1": "802 Cynthianna Ave",
        "address2": "",
        "city": "Charlottesville",
        "state": "VA",
        "postalCode": "22903",
        "coordinates": {
            "lat": 0,
            "lng": 0
        }
    },
    {
        "address1": "810 Fendall Ter",
        "address2": "",
        "city": "Charlottesville",
        "state": "VA",
        "postalCode": "22903",
        "coordinates": {
            "lat": 0,
            "lng": 0
        }
    },
    {
        "address1": "267 Turkey Ridge Rd",
        "address2": "",
        "city": "Charlottesville",
        "state": "VA",
        "postalCode": "22903",
        "coordinates": {
            "lat": 0,
            "lng": 0
        }
    },
    {
        "address1": "834 Village Rd",
        "address2": "",
        "city": "Charlottesville",
        "state": "VA",
        "postalCode": "22903",
        "coordinates": {
            "lat": 0,
            "lng": 0
        }
    },
    {
        "address1": "6056 Mount Cross Rd",
        "address2": "",
        "city": "Danville",
        "state": "VA",
        "postalCode": "24540",
        "coordinates": {
            "lat": 0,
            "lng": 0
        }
    },
    {
        "address1": "4009 Pittwood Dr",
        "address2": "",
        "city": "Danville",
        "state": "VA",
        "postalCode": "24540",
        "coordinates": {
            "lat": 0,
            "lng": 0
        }
    },
    {
        "address1": "3566 R And L Smith Dr",
        "address2": "",
        "city": "Danville",
        "state": "VA",
        "postalCode": "24540",
        "coordinates": {
            "lat": 0,
            "lng": 0
        }
    },
    {
        "address1": "133 Dakota Dr",
        "address2": "",
        "city": "Danville",
        "state": "VA",
        "postalCode": "24540",
        "coordinates": {
            "lat": 0,
            "lng": 0
        }
    },
    {
        "address1": "642 Arnett Blvd",
        "address2": "",
        "city": "Danville",
        "state": "VA",
        "postalCode": "24540",
        "coordinates": {
            "lat": 0,
            "lng": 0
        }
    },
    {
        "address1": "308 Briarwood Dr",
        "address2": "",
        "city": "Danville",
        "state": "VA",
        "postalCode": "24540",
        "coordinates": {
            "lat": 0,
            "lng": 0
        }
    },
    {
        "address1": "209 Willow St",
        "address2": "",
        "city": "Danville",
        "state": "VA",
        "postalCode": "24540",
        "coordinates": {
            "lat": 0,
            "lng": 0
        }
    },
    {
        "address1": "185 Alpine Dr",
        "address2": "",
        "city": "Danville",
        "state": "VA",
        "postalCode": "24540",
        "coordinates": {
            "lat": 0,
            "lng": 0
        }
    },
    {
        "address1": "301 Bellevue St",
        "address2": "",
        "city": "Danville",
        "state": "VA",
        "postalCode": "24540",
        "coordinates": {
            "lat": 0,
            "lng": 0
        }
    },
    {
        "address1": "3277 Preston Shore Dr",
        "address2": "",
        "city": "Harrisonburg",
        "state": "VA",
        "postalCode": "22801",
        "coordinates": {
            "lat": 0,
            "lng": 0
        }
    },
    {
        "address1": "2001 Pine Harbor Ln",
        "address2": "",
        "city": "Harrisonburg",
        "state": "VA",
        "postalCode": "22801",
        "coordinates": {
            "lat": 0,
            "lng": 0
        }
    },
    {
        "address1": "1395 Stockings Cir",
        "address2": "",
        "city": "Harrisonburg",
        "state": "VA",
        "postalCode": "22801",
        "coordinates": {
            "lat": 0,
            "lng": 0
        }
    },
    {
        "address1": "3516 Shen Lake Dr",
        "address2": "",
        "city": "Harrisonburg",
        "state": "VA",
        "postalCode": "22801",
        "coordinates": {
            "lat": 0,
            "lng": 0
        }
    },
    {
        "address1": "2511 Ramblewood Rd",
        "address2": "",
        "city": "Harrisonburg",
        "state": "VA",
        "postalCode": "22801",
        "coordinates": {
            "lat": 0,
            "lng": 0
        }
    },
    {
        "address1": "3346 Clement Dr",
        "address2": "",
        "city": "Harrisonburg",
        "state": "VA",
        "postalCode": "22801",
        "coordinates": {
            "lat": 0,
            "lng": 0
        }
    },
    {
        "address1": "1372 Hunters Rd",
        "address2": "",
        "city": "Harrisonburg",
        "state": "VA",
        "postalCode": "22801",
        "coordinates": {
            "lat": 0,
            "lng": 0
        }
    },
    {
        "address1": "10 Holly Ct",
        "address2": "",
        "city": "Harrisonburg",
        "state": "VA",
        "postalCode": "22801",
        "coordinates": {
            "lat": 0,
            "lng": 0
        }
    },
    {
        "address1": "2200 Ridgedale Rd",
        "address2": "",
        "city": "Harrisonburg",
        "state": "VA",
        "postalCode": "22801",
        "coordinates": {
            "lat": 0,
            "lng": 0
        }
    },
    {
        "address1": "2293 Keezletown Rd",
        "address2": "",
        "city": "Harrisonburg",
        "state": "VA",
        "postalCode": "22802",
        "coordinates": {
            "lat": 0,
            "lng": 0
        }
    },
    {
        "address1": "1641 Park Rd #B",
        "address2": "",
        "city": "Harrisonburg",
        "state": "VA",
        "postalCode": "22802",
        "coordinates": {
            "lat": 0,
            "lng": 0
        }
    },
    {
        "address1": "475 Lacey Spring Rd",
        "address2": "",
        "city": "Harrisonburg",
        "state": "VA",
        "postalCode": "22802",
        "coordinates": {
            "lat": 0,
            "lng": 0
        }
    },
    {
        "address1": "497 Gravels Rd",
        "address2": "",
        "city": "Harrisonburg",
        "state": "VA",
        "postalCode": "22802",
        "coordinates": {
            "lat": 0,
            "lng": 0
        }
    },
    {
        "address1": "566 Viewmont Ct",
        "address2": "",
        "city": "Harrisonburg",
        "state": "VA",
        "postalCode": "22802",
        "coordinates": {
            "lat": 0,
            "lng": 0
        }
    },
    {
        "address1": "685 Gailcrist Dr",
        "address2": "",
        "city": "Harrisonburg",
        "state": "VA",
        "postalCode": "22802",
        "coordinates": {
            "lat": 0,
            "lng": 0
        }
    },
    {
        "address1": "324 Kelley St",
        "address2": "",
        "city": "Harrisonburg",
        "state": "VA",
        "postalCode": "22802",
        "coordinates": {
            "lat": 0,
            "lng": 0
        }
    },
    {
        "address1": "831 Pheasant Ct",
        "address2": "",
        "city": "Harrisonburg",
        "state": "VA",
        "postalCode": "22802",
        "coordinates": {
            "lat": 0,
            "lng": 0
        }
    },
    {
        "address1": "3322 Noland Dr",
        "address2": "",
        "city": "Harrisonburg",
        "state": "VA",
        "postalCode": "22802",
        "coordinates": {
            "lat": 0,
            "lng": 0
        }
    },
    {
        "address1": "411 Robin Dr",
        "address2": "",
        "city": "Lynchburg",
        "state": "VA",
        "postalCode": "24502",
        "coordinates": {
            "lat": 0,
            "lng": 0
        }
    },
    {
        "address1": "4536 Greenwood Dr",
        "address2": "",
        "city": "Lynchburg",
        "state": "VA",
        "postalCode": "24502",
        "coordinates": {
            "lat": 0,
            "lng": 0
        }
    },
    {
        "address1": "110 Gatlin St",
        "address2": "",
        "city": "Lynchburg",
        "state": "VA",
        "postalCode": "24502",
        "coordinates": {
            "lat": 0,
            "lng": 0
        }
    },
    {
        "address1": "1714 Danbury Dr",
        "address2": "",
        "city": "Lynchburg",
        "state": "VA",
        "postalCode": "24502",
        "coordinates": {
            "lat": 0,
            "lng": 0
        }
    },
    {
        "address1": "6128 Pawnee Dr",
        "address2": "",
        "city": "Lynchburg",
        "state": "VA",
        "postalCode": "24502",
        "coordinates": {
            "lat": 0,
            "lng": 0
        }
    },
    {
        "address1": "503 Westview Dr",
        "address2": "",
        "city": "Lynchburg",
        "state": "VA",
        "postalCode": "24502",
        "coordinates": {
            "lat": 0,
            "lng": 0
        }
    },
    {
        "address1": "15 Mountain View Dr",
        "address2": "",
        "city": "Lynchburg",
        "state": "VA",
        "postalCode": "24502",
        "coordinates": {
            "lat": 0,
            "lng": 0
        }
    },
    {
        "address1": "1552 Knott St",
        "address2": "",
        "city": "Lynchburg",
        "state": "VA",
        "postalCode": "24502",
        "coordinates": {
            "lat": 0,
            "lng": 0
        }
    },
    {
        "address1": "7133 Suncrest Dr",
        "address2": "",
        "city": "Lynchburg",
        "state": "VA",
        "postalCode": "24502",
        "coordinates": {
            "lat": 0,
            "lng": 0
        }
    },
    {
        "address1": "13518 Evelyn Dr",
        "address2": "",
        "city": "Chester",
        "state": "VA",
        "postalCode": "23831",
        "coordinates": {
            "lat": 0,
            "lng": 0
        }
    },
    {
        "address1": "4050 Way Crk",
        "address2": "",
        "city": "Chester",
        "state": "VA",
        "postalCode": "23831",
        "coordinates": {
            "lat": 0,
            "lng": 0
        }
    },
    {
        "address1": "12709 Richmond St",
        "address2": "",
        "city": "Chester",
        "state": "VA",
        "postalCode": "23831",
        "coordinates": {
            "lat": 0,
            "lng": 0
        }
    },
    {
        "address1": "15121 Broadwater Way",
        "address2": "",
        "city": "Chester",
        "state": "VA",
        "postalCode": "23831",
        "coordinates": {
            "lat": 0,
            "lng": 0
        }
    },
    {
        "address1": "15351 Timsberry Cir",
        "address2": "",
        "city": "Chester",
        "state": "VA",
        "postalCode": "23831",
        "coordinates": {
            "lat": 0,
            "lng": 0
        }
    },
    {
        "address1": "3124 Poplar View Pl",
        "address2": "",
        "city": "Chester",
        "state": "VA",
        "postalCode": "23831",
        "coordinates": {
            "lat": 0,
            "lng": 0
        }
    },
    {
        "address1": "14401 Tooley Ter",
        "address2": "",
        "city": "Chester",
        "state": "VA",
        "postalCode": "23831",
        "coordinates": {
            "lat": 0,
            "lng": 0
        }
    },
    {
        "address1": "11501 Marsden Rd",
        "address2": "",
        "city": "Chester",
        "state": "VA",
        "postalCode": "23831",
        "coordinates": {
            "lat": 0,
            "lng": 0
        }
    },
    {
        "address1": "11913 Quiet Pine Dr",
        "address2": "",
        "city": "Chester",
        "state": "VA",
        "postalCode": "23831",
        "coordinates": {
            "lat": 0,
            "lng": 0
        }
    },
    {
        "address1": "7300 Cogbill Rd",
        "address2": "",
        "city": "Chesterfield",
        "state": "VA",
        "postalCode": "23832",
        "coordinates": {
            "lat": 0,
            "lng": 0
        }
    },
    {
        "address1": "5619 Kings Grove Dr",
        "address2": "",
        "city": "Chesterfield",
        "state": "VA",
        "postalCode": "23832",
        "coordinates": {
            "lat": 0,
            "lng": 0
        }
    },
    {
        "address1": "6511 Licking Creek Dr",
        "address2": "",
        "city": "Chesterfield",
        "state": "VA",
        "postalCode": "23832",
        "coordinates": {
            "lat": 0,
            "lng": 0
        }
    },
    {
        "address1": "5515 Townsbury Ter",
        "address2": "",
        "city": "Chesterfield",
        "state": "VA",
        "postalCode": "23832",
        "coordinates": {
            "lat": 0,
            "lng": 0
        }
    },
    {
        "address1": "9910 Breslin Dr",
        "address2": "",
        "city": "Chesterfield",
        "state": "VA",
        "postalCode": "23832",
        "coordinates": {
            "lat": 0,
            "lng": 0
        }
    },
    {
        "address1": "5510 Newbys Bridge Rd",
        "address2": "",
        "city": "Chesterfield",
        "state": "VA",
        "postalCode": "23832",
        "coordinates": {
            "lat": 0,
            "lng": 0
        }
    },
    {
        "address1": "6829 Silliman Dr",
        "address2": "",
        "city": "Chesterfield",
        "state": "VA",
        "postalCode": "23832",
        "coordinates": {
            "lat": 0,
            "lng": 0
        }
    },
    {
        "address1": "4006 West Ter",
        "address2": "",
        "city": "Chesterfield",
        "state": "VA",
        "postalCode": "23832",
        "coordinates": {
            "lat": 0,
            "lng": 0
        }
    },
    {
        "address1": "3918 Round Hill Ct",
        "address2": "",
        "city": "Chesterfield",
        "state": "VA",
        "postalCode": "23832",
        "coordinates": {
            "lat": 0,
            "lng": 0
        }
    },
    {
        "address1": "3310 Nuttree Woods Pl",
        "address2": "",
        "city": "Midlothian",
        "state": "VA",
        "postalCode": "23112",
        "coordinates": {
            "lat": 0,
            "lng": 0
        }
    },
    {
        "address1": "3310 Nuttree Woods Pl",
        "address2": "",
        "city": "Midlothian",
        "state": "VA",
        "postalCode": "23112",
        "coordinates": {
            "lat": 0,
            "lng": 0
        }
    },
    {
        "address1": "4121 Mallard Landing Cir",
        "address2": "",
        "city": "Midlothian",
        "state": "VA",
        "postalCode": "23112",
        "coordinates": {
            "lat": 0,
            "lng": 0
        }
    },
    {
        "address1": "4121 Mallard Landing Cir",
        "address2": "",
        "city": "Midlothian",
        "state": "VA",
        "postalCode": "23112",
        "coordinates": {
            "lat": 0,
            "lng": 0
        }
    },
    {
        "address1": "11912 Chislet Ct",
        "address2": "",
        "city": "Midlothian",
        "state": "VA",
        "postalCode": "23112",
        "coordinates": {
            "lat": 0,
            "lng": 0
        }
    },
    {
        "address1": "11912 Chislet Ct",
        "address2": "",
        "city": "Midlothian",
        "state": "VA",
        "postalCode": "23112",
        "coordinates": {
            "lat": 0,
            "lng": 0
        }
    },
    {
        "address1": "15105 Watermill Lake Trl",
        "address2": "",
        "city": "Midlothian",
        "state": "VA",
        "postalCode": "23112",
        "coordinates": {
            "lat": 0,
            "lng": 0
        }
    },
    {
        "address1": "15105 Watermill Lake Trl",
        "address2": "",
        "city": "Midlothian",
        "state": "VA",
        "postalCode": "23112",
        "coordinates": {
            "lat": 0,
            "lng": 0
        }
    },
    {
        "address1": "3606 Pencader Rd",
        "address2": "",
        "city": "Midlothian",
        "state": "VA",
        "postalCode": "23112",
        "coordinates": {
            "lat": 0,
            "lng": 0
        }
    },
    {
        "address1": "2505 Atwell Dr",
        "address2": "",
        "city": "Richmond",
        "state": "VA",
        "postalCode": "23234",
        "coordinates": {
            "lat": 0,
            "lng": 0
        }
    },
    {
        "address1": "2505 Atwell Dr",
        "address2": "",
        "city": "Richmond",
        "state": "VA",
        "postalCode": "23234",
        "coordinates": {
            "lat": 0,
            "lng": 0
        }
    },
    {
        "address1": "3318 Mike Rd",
        "address2": "",
        "city": "Richmond",
        "state": "VA",
        "postalCode": "23234",
        "coordinates": {
            "lat": 0,
            "lng": 0
        }
    },
    {
        "address1": "3318 Mike Rd",
        "address2": "",
        "city": "Richmond",
        "state": "VA",
        "postalCode": "23234",
        "coordinates": {
            "lat": 0,
            "lng": 0
        }
    },
    {
        "address1": "4016 Bingham Dr",
        "address2": "",
        "city": "Richmond",
        "state": "VA",
        "postalCode": "23234",
        "coordinates": {
            "lat": 0,
            "lng": 0
        }
    },
    {
        "address1": "4016 Bingham Dr",
        "address2": "",
        "city": "Richmond",
        "state": "VA",
        "postalCode": "23234",
        "coordinates": {
            "lat": 0,
            "lng": 0
        }
    },
    {
        "address1": "6225 Dorius Dr",
        "address2": "",
        "city": "Richmond",
        "state": "VA",
        "postalCode": "23234",
        "coordinates": {
            "lat": 0,
            "lng": 0
        }
    },
    {
        "address1": "6225 Dorius Dr",
        "address2": "",
        "city": "Richmond",
        "state": "VA",
        "postalCode": "23234",
        "coordinates": {
            "lat": 0,
            "lng": 0
        }
    },
    {
        "address1": "6801 Beulah Oaks Ln",
        "address2": "",
        "city": "Richmond",
        "state": "VA",
        "postalCode": "23234",
        "coordinates": {
            "lat": 0,
            "lng": 0
        }
    },
    {
        "address1": "8311 Soft Wind Dr",
        "address2": "",
        "city": "Mechanicsville",
        "state": "VA",
        "postalCode": "23111",
        "coordinates": {
            "lat": 0,
            "lng": 0
        }
    },
    {
        "address1": "8311 Soft Wind Dr",
        "address2": "",
        "city": "Mechanicsville",
        "state": "VA",
        "postalCode": "23111",
        "coordinates": {
            "lat": 0,
            "lng": 0
        }
    },
    {
        "address1": "7167 Mill Valley Rd",
        "address2": "",
        "city": "Mechanicsville",
        "state": "VA",
        "postalCode": "23111",
        "coordinates": {
            "lat": 0,
            "lng": 0
        }
    },
    {
        "address1": "7167 Mill Valley Rd",
        "address2": "",
        "city": "Mechanicsville",
        "state": "VA",
        "postalCode": "23111",
        "coordinates": {
            "lat": 0,
            "lng": 0
        }
    },
    {
        "address1": "6139 Stockade Ct",
        "address2": "",
        "city": "Mechanicsville",
        "state": "VA",
        "postalCode": "23111",
        "coordinates": {
            "lat": 0,
            "lng": 0
        }
    },
    {
        "address1": "6139 Stockade Ct",
        "address2": "",
        "city": "Mechanicsville",
        "state": "VA",
        "postalCode": "23111",
        "coordinates": {
            "lat": 0,
            "lng": 0
        }
    },
    {
        "address1": "6100 Perryville Dr",
        "address2": "",
        "city": "Mechanicsville",
        "state": "VA",
        "postalCode": "23111",
        "coordinates": {
            "lat": 0,
            "lng": 0
        }
    },
    {
        "address1": "6100 Perryville Dr",
        "address2": "",
        "city": "Mechanicsville",
        "state": "VA",
        "postalCode": "23111",
        "coordinates": {
            "lat": 0,
            "lng": 0
        }
    },
    {
        "address1": "6767 Cold Harbor Rd",
        "address2": "",
        "city": "Mechanicsville",
        "state": "VA",
        "postalCode": "23111",
        "coordinates": {
            "lat": 0,
            "lng": 0
        }
    },
    {
        "address1": "9163 Hunters Chase Ct",
        "address2": "",
        "city": "Mechanicsville",
        "state": "VA",
        "postalCode": "23116",
        "coordinates": {
            "lat": 0,
            "lng": 0
        }
    },
    {
        "address1": "9163 Hunters Chase Ct",
        "address2": "",
        "city": "Mechanicsville",
        "state": "VA",
        "postalCode": "23116",
        "coordinates": {
            "lat": 0,
            "lng": 0
        }
    },
    {
        "address1": "9108 Minglewood Ln",
        "address2": "",
        "city": "Mechanicsville",
        "state": "VA",
        "postalCode": "23116",
        "coordinates": {
            "lat": 0,
            "lng": 0
        }
    },
    {
        "address1": "9108 Minglewood Ln",
        "address2": "",
        "city": "Mechanicsville",
        "state": "VA",
        "postalCode": "23116",
        "coordinates": {
            "lat": 0,
            "lng": 0
        }
    },
    {
        "address1": "9405 Apple Blossom Dr",
        "address2": "",
        "city": "Mechanicsville",
        "state": "VA",
        "postalCode": "23116",
        "coordinates": {
            "lat": 0,
            "lng": 0
        }
    },
    {
        "address1": "9405 Apple Blossom Dr",
        "address2": "",
        "city": "Mechanicsville",
        "state": "VA",
        "postalCode": "23116",
        "coordinates": {
            "lat": 0,
            "lng": 0
        }
    },
    {
        "address1": "9080 Winterham Dr",
        "address2": "",
        "city": "Mechanicsville",
        "state": "VA",
        "postalCode": "23116",
        "coordinates": {
            "lat": 0,
            "lng": 0
        }
    },
    {
        "address1": "9080 Winterham Dr",
        "address2": "",
        "city": "Mechanicsville",
        "state": "VA",
        "postalCode": "23116",
        "coordinates": {
            "lat": 0,
            "lng": 0
        }
    },
    {
        "address1": "8093 Crown Colony Pky",
        "address2": "",
        "city": "Mechanicsville",
        "state": "VA",
        "postalCode": "23116",
        "coordinates": {
            "lat": 0,
            "lng": 0
        }
    },
    {
        "address1": "4017 Riverplace Ter",
        "address2": "",
        "city": "Glen Allen",
        "state": "VA",
        "postalCode": "23059",
        "coordinates": {
            "lat": 0,
            "lng": 0
        }
    },
    {
        "address1": "11003 Winfrey Rd",
        "address2": "",
        "city": "Glen Allen",
        "state": "VA",
        "postalCode": "23059",
        "coordinates": {
            "lat": 0,
            "lng": 0
        }
    },
    {
        "address1": "10516 Runnymeade Dr",
        "address2": "",
        "city": "Glen Allen",
        "state": "VA",
        "postalCode": "23059",
        "coordinates": {
            "lat": 0,
            "lng": 0
        }
    },
    {
        "address1": "3117 Stone Arbor Ln",
        "address2": "",
        "city": "Glen Allen",
        "state": "VA",
        "postalCode": "23059",
        "coordinates": {
            "lat": 0,
            "lng": 0
        }
    },
    {
        "address1": "5909 Chapel Lawn Ter",
        "address2": "",
        "city": "Glen Allen",
        "state": "VA",
        "postalCode": "23059",
        "coordinates": {
            "lat": 0,
            "lng": 0
        }
    },
    {
        "address1": "11633 Sethwarner Dr",
        "address2": "",
        "city": "Glen Allen",
        "state": "VA",
        "postalCode": "23059",
        "coordinates": {
            "lat": 0,
            "lng": 0
        }
    },
    {
        "address1": "11919 Park Way Frst",
        "address2": "",
        "city": "Glen Allen",
        "state": "VA",
        "postalCode": "23059",
        "coordinates": {
            "lat": 0,
            "lng": 0
        }
    },
    {
        "address1": "4916 Grey Oaks Villas Dr",
        "address2": "",
        "city": "Glen Allen",
        "state": "VA",
        "postalCode": "23059",
        "coordinates": {
            "lat": 0,
            "lng": 0
        }
    },
    {
        "address1": "12422 Greenwich Dr",
        "address2": "",
        "city": "Glen Allen",
        "state": "VA",
        "postalCode": "23059",
        "coordinates": {
            "lat": 0,
            "lng": 0
        }
    },
    {
        "address1": "9609 Fireside Dr",
        "address2": "",
        "city": "Glen Allen",
        "state": "VA",
        "postalCode": "23060",
        "coordinates": {
            "lat": 0,
            "lng": 0
        }
    },
    {
        "address1": "2104 Megan Dr",
        "address2": "",
        "city": "Glen Allen",
        "state": "VA",
        "postalCode": "23060",
        "coordinates": {
            "lat": 0,
            "lng": 0
        }
    },
    {
        "address1": "8017 Nicewood Rd",
        "address2": "",
        "city": "Glen Allen",
        "state": "VA",
        "postalCode": "23060",
        "coordinates": {
            "lat": 0,
            "lng": 0
        }
    },
    {
        "address1": "2800 Lito Rd",
        "address2": "",
        "city": "Glen Allen",
        "state": "VA",
        "postalCode": "23060",
        "coordinates": {
            "lat": 0,
            "lng": 0
        }
    },
    {
        "address1": "9532 Kennedy Station Ter",
        "address2": "",
        "city": "Glen Allen",
        "state": "VA",
        "postalCode": "23060",
        "coordinates": {
            "lat": 0,
            "lng": 0
        }
    },
    {
        "address1": "1907 Brilland Ct",
        "address2": "",
        "city": "Glen Allen",
        "state": "VA",
        "postalCode": "23060",
        "coordinates": {
            "lat": 0,
            "lng": 0
        }
    },
    {
        "address1": "804 Stonemeadow Dr",
        "address2": "",
        "city": "Glen Allen",
        "state": "VA",
        "postalCode": "23060",
        "coordinates": {
            "lat": 0,
            "lng": 0
        }
    },
    {
        "address1": "1060 Telegraph Station Ln",
        "address2": "",
        "city": "Glen Allen",
        "state": "VA",
        "postalCode": "23060",
        "coordinates": {
            "lat": 0,
            "lng": 0
        }
    },
    {
        "address1": "2520 Woodman Trace Dr",
        "address2": "",
        "city": "Glen Allen",
        "state": "VA",
        "postalCode": "23060",
        "coordinates": {
            "lat": 0,
            "lng": 0
        }
    },
    {
        "address1": "2001 Hungary Rd",
        "address2": "",
        "city": "Richmond",
        "state": "VA",
        "postalCode": "23228",
        "coordinates": {
            "lat": 0,
            "lng": 0
        }
    },
    {
        "address1": "2001 Hungary Rd",
        "address2": "",
        "city": "Richmond",
        "state": "VA",
        "postalCode": "23228",
        "coordinates": {
            "lat": 0,
            "lng": 0
        }
    },
    {
        "address1": "8611 Woodman Rd",
        "address2": "",
        "city": "Richmond",
        "state": "VA",
        "postalCode": "23228",
        "coordinates": {
            "lat": 0,
            "lng": 0
        }
    },
    {
        "address1": "7105 Fernwood St",
        "address2": "",
        "city": "Richmond",
        "state": "VA",
        "postalCode": "23228",
        "coordinates": {
            "lat": 0,
            "lng": 0
        }
    },
    {
        "address1": "3305 Webb Rd",
        "address2": "",
        "city": "Richmond",
        "state": "VA",
        "postalCode": "23228",
        "coordinates": {
            "lat": 0,
            "lng": 0
        }
    },
    {
        "address1": "2605 Waldo Ln",
        "address2": "",
        "city": "Richmond",
        "state": "VA",
        "postalCode": "23228",
        "coordinates": {
            "lat": 0,
            "lng": 0
        }
    },
    {
        "address1": "1 Gateway E",
        "address2": "",
        "city": "Richmond",
        "state": "VA",
        "postalCode": "23229",
        "coordinates": {
            "lat": 0,
            "lng": 0
        }
    },
    {
        "address1": "1 Gateway E",
        "address2": "",
        "city": "Richmond",
        "state": "VA",
        "postalCode": "23229",
        "coordinates": {
            "lat": 0,
            "lng": 0
        }
    },
    {
        "address1": "7710 Rock Creek Rd",
        "address2": "",
        "city": "Richmond",
        "state": "VA",
        "postalCode": "23229",
        "coordinates": {
            "lat": 0,
            "lng": 0
        }
    },
    {
        "address1": "7710 Rock Creek Rd",
        "address2": "",
        "city": "Richmond",
        "state": "VA",
        "postalCode": "23229",
        "coordinates": {
            "lat": 0,
            "lng": 0
        }
    },
    {
        "address1": "1023 Ridge Top Rd",
        "address2": "",
        "city": "Richmond",
        "state": "VA",
        "postalCode": "23229",
        "coordinates": {
            "lat": 0,
            "lng": 0
        }
    },
    {
        "address1": "1023 Ridge Top Rd",
        "address2": "",
        "city": "Richmond",
        "state": "VA",
        "postalCode": "23229",
        "coordinates": {
            "lat": 0,
            "lng": 0
        }
    },
    {
        "address1": "8715 Avalon Dr",
        "address2": "",
        "city": "Richmond",
        "state": "VA",
        "postalCode": "23229",
        "coordinates": {
            "lat": 0,
            "lng": 0
        }
    },
    {
        "address1": "8715 Avalon Dr",
        "address2": "",
        "city": "Richmond",
        "state": "VA",
        "postalCode": "23229",
        "coordinates": {
            "lat": 0,
            "lng": 0
        }
    },
    {
        "address1": "9414 Sir Barry Ct",
        "address2": "",
        "city": "Richmond",
        "state": "VA",
        "postalCode": "23229",
        "coordinates": {
            "lat": 0,
            "lng": 0
        }
    },
    {
        "address1": "1614 Thalia Cres",
        "address2": "",
        "city": "Richmond",
        "state": "VA",
        "postalCode": "23231",
        "coordinates": {
            "lat": 0,
            "lng": 0
        }
    },
    {
        "address1": "1614 Thalia Cres",
        "address2": "",
        "city": "Richmond",
        "state": "VA",
        "postalCode": "23231",
        "coordinates": {
            "lat": 0,
            "lng": 0
        }
    },
    {
        "address1": "1362 Jennie Scher Rd #G",
        "address2": "",
        "city": "Richmond",
        "state": "VA",
        "postalCode": "23231",
        "coordinates": {
            "lat": 0,
            "lng": 0
        }
    },
    {
        "address1": "1362 Jennie Scher Rd #G",
        "address2": "",
        "city": "Richmond",
        "state": "VA",
        "postalCode": "23231",
        "coordinates": {
            "lat": 0,
            "lng": 0
        }
    },
    {
        "address1": "4625 Jennell Crescent Ct",
        "address2": "",
        "city": "Richmond",
        "state": "VA",
        "postalCode": "23231",
        "coordinates": {
            "lat": 0,
            "lng": 0
        }
    },
    {
        "address1": "4625 Jennell Crescent Ct",
        "address2": "",
        "city": "Richmond",
        "state": "VA",
        "postalCode": "23231",
        "coordinates": {
            "lat": 0,
            "lng": 0
        }
    },
    {
        "address1": "1370 Freshet Ct",
        "address2": "",
        "city": "Richmond",
        "state": "VA",
        "postalCode": "23231",
        "coordinates": {
            "lat": 0,
            "lng": 0
        }
    },
    {
        "address1": "1370 Freshet Ct",
        "address2": "",
        "city": "Richmond",
        "state": "VA",
        "postalCode": "23231",
        "coordinates": {
            "lat": 0,
            "lng": 0
        }
    },
    {
        "address1": "4632 Grand Ledge Ct",
        "address2": "",
        "city": "Richmond",
        "state": "VA",
        "postalCode": "23231",
        "coordinates": {
            "lat": 0,
            "lng": 0
        }
    },
    {
        "address1": "3501 Chesterbrook Ct",
        "address2": "",
        "city": "Richmond",
        "state": "VA",
        "postalCode": "23233",
        "coordinates": {
            "lat": 0,
            "lng": 0
        }
    },
    {
        "address1": "3501 Chesterbrook Ct",
        "address2": "",
        "city": "Richmond",
        "state": "VA",
        "postalCode": "23233",
        "coordinates": {
            "lat": 0,
            "lng": 0
        }
    },
    {
        "address1": "1315 S 1st Ave",
        "address2": "",
        "city": "Hopewell",
        "state": "VA",
        "postalCode": "23860",
        "coordinates": {
            "lat": 0,
            "lng": 0
        }
    },
    {
        "address1": "1520 Piper Square Dr #APT H",
        "address2": "",
        "city": "Hopewell",
        "state": "VA",
        "postalCode": "23860",
        "coordinates": {
            "lat": 0,
            "lng": 0
        }
    },
    {
        "address1": "3000 Belmont Ave",
        "address2": "",
        "city": "Hopewell",
        "state": "VA",
        "postalCode": "23860",
        "coordinates": {
            "lat": 0,
            "lng": 0
        }
    },
    {
        "address1": "1605 W City Point Rd",
        "address2": "",
        "city": "Hopewell",
        "state": "VA",
        "postalCode": "23860",
        "coordinates": {
            "lat": 0,
            "lng": 0
        }
    },
    {
        "address1": "316 Brown Ave",
        "address2": "",
        "city": "Hopewell",
        "state": "VA",
        "postalCode": "23860",
        "coordinates": {
            "lat": 0,
            "lng": 0
        }
    },
    {
        "address1": "4919 Old Woodlawn St",
        "address2": "",
        "city": "Hopewell",
        "state": "VA",
        "postalCode": "23860",
        "coordinates": {
            "lat": 0,
            "lng": 0
        }
    },
    {
        "address1": "407 Stone Hearth Ct",
        "address2": "",
        "city": "Hopewell",
        "state": "VA",
        "postalCode": "23860",
        "coordinates": {
            "lat": 0,
            "lng": 0
        }
    },
    {
        "address1": "3307 Freeman St",
        "address2": "",
        "city": "Hopewell",
        "state": "VA",
        "postalCode": "23860",
        "coordinates": {
            "lat": 0,
            "lng": 0
        }
    },
    {
        "address1": "505 N 4th Ave",
        "address2": "",
        "city": "Hopewell",
        "state": "VA",
        "postalCode": "23860",
        "coordinates": {
            "lat": 0,
            "lng": 0
        }
    },
    {
        "address1": "235 Terrace Ave",
        "address2": "",
        "city": "Petersburg",
        "state": "VA",
        "postalCode": "23803",
        "coordinates": {
            "lat": 0,
            "lng": 0
        }
    },
    {
        "address1": "20221 Eagle Cove Ct",
        "address2": "",
        "city": "Petersburg",
        "state": "VA",
        "postalCode": "23803",
        "coordinates": {
            "lat": 0,
            "lng": 0
        }
    },
    {
        "address1": "19905 Matoaca Rd",
        "address2": "",
        "city": "Petersburg",
        "state": "VA",
        "postalCode": "23803",
        "coordinates": {
            "lat": 0,
            "lng": 0
        }
    },
    {
        "address1": "1128 Pointer St",
        "address2": "",
        "city": "Petersburg",
        "state": "VA",
        "postalCode": "23803",
        "coordinates": {
            "lat": 0,
            "lng": 0
        }
    },
    {
        "address1": "21403 Deodora Dr",
        "address2": "",
        "city": "Petersburg",
        "state": "VA",
        "postalCode": "23803",
        "coordinates": {
            "lat": 0,
            "lng": 0
        }
    },
    {
        "address1": "20407 Williams St",
        "address2": "",
        "city": "Petersburg",
        "state": "VA",
        "postalCode": "23803",
        "coordinates": {
            "lat": 0,
            "lng": 0
        }
    },
    {
        "address1": "14719 Grand Forest Ct",
        "address2": "",
        "city": "Petersburg",
        "state": "VA",
        "postalCode": "23803",
        "coordinates": {
            "lat": 0,
            "lng": 0
        }
    },
    {
        "address1": "1020 Ruffin Mill Pl",
        "address2": "",
        "city": "Petersburg",
        "state": "VA",
        "postalCode": "23803",
        "coordinates": {
            "lat": 0,
            "lng": 0
        }
    },
    {
        "address1": "5954 Ferintosh Ln",
        "address2": "",
        "city": "Petersburg",
        "state": "VA",
        "postalCode": "23803",
        "coordinates": {
            "lat": 0,
            "lng": 0
        }
    },
    {
        "address1": "2618 W Main St",
        "address2": "",
        "city": "Richmond",
        "state": "VA",
        "postalCode": "23220",
        "coordinates": {
            "lat": 0,
            "lng": 0
        }
    },
    {
        "address1": "2618 W Main St",
        "address2": "",
        "city": "Richmond",
        "state": "VA",
        "postalCode": "23220",
        "coordinates": {
            "lat": 0,
            "lng": 0
        }
    },
    {
        "address1": "2618 Idlewood Ave",
        "address2": "",
        "city": "Richmond",
        "state": "VA",
        "postalCode": "23220",
        "coordinates": {
            "lat": 0,
            "lng": 0
        }
    },
    {
        "address1": "2618 Idlewood Ave",
        "address2": "",
        "city": "Richmond",
        "state": "VA",
        "postalCode": "23220",
        "coordinates": {
            "lat": 0,
            "lng": 0
        }
    },
    {
        "address1": "1837 Grayland Ave",
        "address2": "",
        "city": "Richmond",
        "state": "VA",
        "postalCode": "23220",
        "coordinates": {
            "lat": 0,
            "lng": 0
        }
    },
    {
        "address1": "604 N 32nd St",
        "address2": "",
        "city": "Richmond",
        "state": "VA",
        "postalCode": "23223",
        "coordinates": {
            "lat": 0,
            "lng": 0
        }
    },
    {
        "address1": "604 N 32nd St",
        "address2": "",
        "city": "Richmond",
        "state": "VA",
        "postalCode": "23223",
        "coordinates": {
            "lat": 0,
            "lng": 0
        }
    },
    {
        "address1": "3422 E Broad St",
        "address2": "",
        "city": "Richmond",
        "state": "VA",
        "postalCode": "23223",
        "coordinates": {
            "lat": 0,
            "lng": 0
        }
    },
    {
        "address1": "3422 E Broad St",
        "address2": "",
        "city": "Richmond",
        "state": "VA",
        "postalCode": "23223",
        "coordinates": {
            "lat": 0,
            "lng": 0
        }
    },
    {
        "address1": "301 Dabbs House Rd #APT 377",
        "address2": "",
        "city": "Richmond",
        "state": "VA",
        "postalCode": "23223",
        "coordinates": {
            "lat": 0,
            "lng": 0
        }
    },
    {
        "address1": "301 Dabbs House Rd #APT 377",
        "address2": "",
        "city": "Richmond",
        "state": "VA",
        "postalCode": "23223",
        "coordinates": {
            "lat": 0,
            "lng": 0
        }
    },
    {
        "address1": "2530 Whitcomb St",
        "address2": "",
        "city": "Richmond",
        "state": "VA",
        "postalCode": "23223",
        "coordinates": {
            "lat": 0,
            "lng": 0
        }
    },
    {
        "address1": "2530 Whitcomb St",
        "address2": "",
        "city": "Richmond",
        "state": "VA",
        "postalCode": "23223",
        "coordinates": {
            "lat": 0,
            "lng": 0
        }
    },
    {
        "address1": "1101 Micheline Ter",
        "address2": "",
        "city": "Richmond",
        "state": "VA",
        "postalCode": "23223",
        "coordinates": {
            "lat": 0,
            "lng": 0
        }
    },
    {
        "address1": "3254 Broad Rock Blvd",
        "address2": "",
        "city": "Richmond",
        "state": "VA",
        "postalCode": "23224",
        "coordinates": {
            "lat": 0,
            "lng": 0
        }
    },
    {
        "address1": "3254 Broad Rock Blvd",
        "address2": "",
        "city": "Richmond",
        "state": "VA",
        "postalCode": "23224",
        "coordinates": {
            "lat": 0,
            "lng": 0
        }
    },
    {
        "address1": "1885 Fernbrook Dr",
        "address2": "",
        "city": "Richmond",
        "state": "VA",
        "postalCode": "23224",
        "coordinates": {
            "lat": 0,
            "lng": 0
        }
    },
    {
        "address1": "1885 Fernbrook Dr",
        "address2": "",
        "city": "Richmond",
        "state": "VA",
        "postalCode": "23224",
        "coordinates": {
            "lat": 0,
            "lng": 0
        }
    },
    {
        "address1": "307 Stockton St",
        "address2": "",
        "city": "Richmond",
        "state": "VA",
        "postalCode": "23224",
        "coordinates": {
            "lat": 0,
            "lng": 0
        }
    },
    {
        "address1": "307 Stockton St",
        "address2": "",
        "city": "Richmond",
        "state": "VA",
        "postalCode": "23224",
        "coordinates": {
            "lat": 0,
            "lng": 0
        }
    },
    {
        "address1": "5857 Orcutt Ln",
        "address2": "",
        "city": "Richmond",
        "state": "VA",
        "postalCode": "23224",
        "coordinates": {
            "lat": 0,
            "lng": 0
        }
    },
    {
        "address1": "5857 Orcutt Ln",
        "address2": "",
        "city": "Richmond",
        "state": "VA",
        "postalCode": "23224",
        "coordinates": {
            "lat": 0,
            "lng": 0
        }
    },
    {
        "address1": "1522 Lone St",
        "address2": "",
        "city": "Richmond",
        "state": "VA",
        "postalCode": "23224",
        "coordinates": {
            "lat": 0,
            "lng": 0
        }
    },
    {
        "address1": "107 W 34th St",
        "address2": "",
        "city": "Richmond",
        "state": "VA",
        "postalCode": "23225",
        "coordinates": {
            "lat": 0,
            "lng": 0
        }
    },
    {
        "address1": "107 W 34th St",
        "address2": "",
        "city": "Richmond",
        "state": "VA",
        "postalCode": "23225",
        "coordinates": {
            "lat": 0,
            "lng": 0
        }
    },
    {
        "address1": "2303 Bainbridge St",
        "address2": "",
        "city": "Richmond",
        "state": "VA",
        "postalCode": "23225",
        "coordinates": {
            "lat": 0,
            "lng": 0
        }
    },
    {
        "address1": "2303 Bainbridge St",
        "address2": "",
        "city": "Richmond",
        "state": "VA",
        "postalCode": "23225",
        "coordinates": {
            "lat": 0,
            "lng": 0
        }
    },
    {
        "address1": "1100 German School Rd",
        "address2": "",
        "city": "Richmond",
        "state": "VA",
        "postalCode": "23225",
        "coordinates": {
            "lat": 0,
            "lng": 0
        }
    },
    {
        "address1": "1100 German School Rd",
        "address2": "",
        "city": "Richmond",
        "state": "VA",
        "postalCode": "23225",
        "coordinates": {
            "lat": 0,
            "lng": 0
        }
    },
    {
        "address1": "6823 Carnation St #D",
        "address2": "",
        "city": "Richmond",
        "state": "VA",
        "postalCode": "23225",
        "coordinates": {
            "lat": 0,
            "lng": 0
        }
    },
    {
        "address1": "6913 Carnation St #B",
        "address2": "",
        "city": "Richmond",
        "state": "VA",
        "postalCode": "23225",
        "coordinates": {
            "lat": 0,
            "lng": 0
        }
    },
    {
        "address1": "440 Westover Hills Blvd",
        "address2": "",
        "city": "Richmond",
        "state": "VA",
        "postalCode": "23225",
        "coordinates": {
            "lat": 0,
            "lng": 0
        }
    },
    {
        "address1": "3464 Colonial M73 Ave",
        "address2": "",
        "city": "Roanoke",
        "state": "VA",
        "postalCode": "24018",
        "coordinates": {
            "lat": 0,
            "lng": 0
        }
    },
    {
        "address1": "3464 Colonial M73 Ave",
        "address2": "",
        "city": "Roanoke",
        "state": "VA",
        "postalCode": "24018",
        "coordinates": {
            "lat": 0,
            "lng": 0
        }
    },
    {
        "address1": "3337 Circle Brook Dr #C",
        "address2": "",
        "city": "Roanoke",
        "state": "VA",
        "postalCode": "24018",
        "coordinates": {
            "lat": 0,
            "lng": 0
        }
    },
    {
        "address1": "3337 Circle Brook Dr #C",
        "address2": "",
        "city": "Roanoke",
        "state": "VA",
        "postalCode": "24018",
        "coordinates": {
            "lat": 0,
            "lng": 0
        }
    },
    {
        "address1": "5105 Canter Dr",
        "address2": "",
        "city": "Roanoke",
        "state": "VA",
        "postalCode": "24018",
        "coordinates": {
            "lat": 0,
            "lng": 0
        }
    },
    {
        "address1": "5105 Canter Dr",
        "address2": "",
        "city": "Roanoke",
        "state": "VA",
        "postalCode": "24018",
        "coordinates": {
            "lat": 0,
            "lng": 0
        }
    },
    {
        "address1": "3020 Circle Dr SW",
        "address2": "",
        "city": "Roanoke",
        "state": "VA",
        "postalCode": "24018",
        "coordinates": {
            "lat": 0,
            "lng": 0
        }
    },
    {
        "address1": "3020 Circle Dr SW",
        "address2": "",
        "city": "Roanoke",
        "state": "VA",
        "postalCode": "24018",
        "coordinates": {
            "lat": 0,
            "lng": 0
        }
    },
    {
        "address1": "4418 Fontaine Dr",
        "address2": "",
        "city": "Roanoke",
        "state": "VA",
        "postalCode": "24018",
        "coordinates": {
            "lat": 0,
            "lng": 0
        }
    },
    {
        "address1": "320 Hershberger Rd NW",
        "address2": "",
        "city": "Roanoke",
        "state": "VA",
        "postalCode": "24012",
        "coordinates": {
            "lat": 0,
            "lng": 0
        }
    },
    {
        "address1": "320 Hershberger Rd NW",
        "address2": "",
        "city": "Roanoke",
        "state": "VA",
        "postalCode": "24012",
        "coordinates": {
            "lat": 0,
            "lng": 0
        }
    },
    {
        "address1": "401 Friends Way",
        "address2": "",
        "city": "Roanoke",
        "state": "VA",
        "postalCode": "24012",
        "coordinates": {
            "lat": 0,
            "lng": 0
        }
    },
    {
        "address1": "401 Friends Way",
        "address2": "",
        "city": "Roanoke",
        "state": "VA",
        "postalCode": "24012",
        "coordinates": {
            "lat": 0,
            "lng": 0
        }
    },
    {
        "address1": "501 Mapleton Ave NE",
        "address2": "",
        "city": "Roanoke",
        "state": "VA",
        "postalCode": "24012",
        "coordinates": {
            "lat": 0,
            "lng": 0
        }
    },
    {
        "address1": "501 Mapleton Ave NE",
        "address2": "",
        "city": "Roanoke",
        "state": "VA",
        "postalCode": "24012",
        "coordinates": {
            "lat": 0,
            "lng": 0
        }
    },
    {
        "address1": "480 Bluebell Ln NW",
        "address2": "",
        "city": "Roanoke",
        "state": "VA",
        "postalCode": "24012",
        "coordinates": {
            "lat": 0,
            "lng": 0
        }
    },
    {
        "address1": "480 Bluebell Ln NW",
        "address2": "",
        "city": "Roanoke",
        "state": "VA",
        "postalCode": "24012",
        "coordinates": {
            "lat": 0,
            "lng": 0
        }
    },
    {
        "address1": "3750 Williamson Rd NE #P",
        "address2": "",
        "city": "Roanoke",
        "state": "VA",
        "postalCode": "24012",
        "coordinates": {
            "lat": 0,
            "lng": 0
        }
    },
    {
        "address1": "202 Primrose Ln",
        "address2": "",
        "city": "Chesapeake",
        "state": "VA",
        "postalCode": "23320",
        "coordinates": {
            "lat": 0,
            "lng": 0
        }
    },
    {
        "address1": "202 Primrose Ln",
        "address2": "",
        "city": "Chesapeake",
        "state": "VA",
        "postalCode": "23320",
        "coordinates": {
            "lat": 0,
            "lng": 0
        }
    },
    {
        "address1": "609 Shadow Brooke Dr",
        "address2": "",
        "city": "Chesapeake",
        "state": "VA",
        "postalCode": "23320",
        "coordinates": {
            "lat": 0,
            "lng": 0
        }
    },
    {
        "address1": "609 Shadow Brooke Dr",
        "address2": "",
        "city": "Chesapeake",
        "state": "VA",
        "postalCode": "23320",
        "coordinates": {
            "lat": 0,
            "lng": 0
        }
    },
    {
        "address1": "1509 Ring Rd",
        "address2": "",
        "city": "Chesapeake",
        "state": "VA",
        "postalCode": "23320",
        "coordinates": {
            "lat": 0,
            "lng": 0
        }
    },
    {
        "address1": "1509 Ring Rd",
        "address2": "",
        "city": "Chesapeake",
        "state": "VA",
        "postalCode": "23320",
        "coordinates": {
            "lat": 0,
            "lng": 0
        }
    },
    {
        "address1": "717 Sea Pines Run",
        "address2": "",
        "city": "Chesapeake",
        "state": "VA",
        "postalCode": "23320",
        "coordinates": {
            "lat": 0,
            "lng": 0
        }
    },
    {
        "address1": "717 Sea Pines Run",
        "address2": "",
        "city": "Chesapeake",
        "state": "VA",
        "postalCode": "23320",
        "coordinates": {
            "lat": 0,
            "lng": 0
        }
    },
    {
        "address1": "1811 Beckwood Cmn",
        "address2": "",
        "city": "Chesapeake",
        "state": "VA",
        "postalCode": "23320",
        "coordinates": {
            "lat": 0,
            "lng": 0
        }
    },
    {
        "address1": "3213 Bruin Dr",
        "address2": "",
        "city": "Chesapeake",
        "state": "VA",
        "postalCode": "23321",
        "coordinates": {
            "lat": 0,
            "lng": 0
        }
    },
    {
        "address1": "3213 Bruin Dr",
        "address2": "",
        "city": "Chesapeake",
        "state": "VA",
        "postalCode": "23321",
        "coordinates": {
            "lat": 0,
            "lng": 0
        }
    },
    {
        "address1": "3732 Cannon Point Dr",
        "address2": "",
        "city": "Chesapeake",
        "state": "VA",
        "postalCode": "23321",
        "coordinates": {
            "lat": 0,
            "lng": 0
        }
    },
    {
        "address1": "3732 Cannon Point Dr",
        "address2": "",
        "city": "Chesapeake",
        "state": "VA",
        "postalCode": "23321",
        "coordinates": {
            "lat": 0,
            "lng": 0
        }
    },
    {
        "address1": "3053 Tyre Neck Rd",
        "address2": "",
        "city": "Chesapeake",
        "state": "VA",
        "postalCode": "23321",
        "coordinates": {
            "lat": 0,
            "lng": 0
        }
    },
    {
        "address1": "3053 Tyre Neck Rd",
        "address2": "",
        "city": "Chesapeake",
        "state": "VA",
        "postalCode": "23321",
        "coordinates": {
            "lat": 0,
            "lng": 0
        }
    },
    {
        "address1": "3209 Meadowbrook Ln",
        "address2": "",
        "city": "Chesapeake",
        "state": "VA",
        "postalCode": "23321",
        "coordinates": {
            "lat": 0,
            "lng": 0
        }
    },
    {
        "address1": "3209 Meadowbrook Ln",
        "address2": "",
        "city": "Chesapeake",
        "state": "VA",
        "postalCode": "23321",
        "coordinates": {
            "lat": 0,
            "lng": 0
        }
    },
    {
        "address1": "4702 Feldspar Quay",
        "address2": "",
        "city": "Chesapeake",
        "state": "VA",
        "postalCode": "23321",
        "coordinates": {
            "lat": 0,
            "lng": 0
        }
    },
    {
        "address1": "417 Ballahack Rd",
        "address2": "",
        "city": "Chesapeake",
        "state": "VA",
        "postalCode": "23322",
        "coordinates": {
            "lat": 0,
            "lng": 0
        }
    },
    {
        "address1": "417 Ballahack Rd",
        "address2": "",
        "city": "Chesapeake",
        "state": "VA",
        "postalCode": "23322",
        "coordinates": {
            "lat": 0,
            "lng": 0
        }
    },
    {
        "address1": "1108 Kathleen Ln",
        "address2": "",
        "city": "Chesapeake",
        "state": "VA",
        "postalCode": "23322",
        "coordinates": {
            "lat": 0,
            "lng": 0
        }
    },
    {
        "address1": "1108 Kathleen Ln",
        "address2": "",
        "city": "Chesapeake",
        "state": "VA",
        "postalCode": "23322",
        "coordinates": {
            "lat": 0,
            "lng": 0
        }
    },
    {
        "address1": "1502 Hawick Ter",
        "address2": "",
        "city": "Chesapeake",
        "state": "VA",
        "postalCode": "23322",
        "coordinates": {
            "lat": 0,
            "lng": 0
        }
    },
    {
        "address1": "1502 Hawick Ter",
        "address2": "",
        "city": "Chesapeake",
        "state": "VA",
        "postalCode": "23322",
        "coordinates": {
            "lat": 0,
            "lng": 0
        }
    },
    {
        "address1": "913 Mockingbird Ct",
        "address2": "",
        "city": "Chesapeake",
        "state": "VA",
        "postalCode": "23322",
        "coordinates": {
            "lat": 0,
            "lng": 0
        }
    },
    {
        "address1": "913 Mockingbird Ct",
        "address2": "",
        "city": "Chesapeake",
        "state": "VA",
        "postalCode": "23322",
        "coordinates": {
            "lat": 0,
            "lng": 0
        }
    },
    {
        "address1": "345 Bartell Dr",
        "address2": "",
        "city": "Chesapeake",
        "state": "VA",
        "postalCode": "23322",
        "coordinates": {
            "lat": 0,
            "lng": 0
        }
    },
    {
        "address1": "1424 Boxwood Dr",
        "address2": "",
        "city": "Chesapeake",
        "state": "VA",
        "postalCode": "23323",
        "coordinates": {
            "lat": 0,
            "lng": 0
        }
    },
    {
        "address1": "1424 Boxwood Dr",
        "address2": "",
        "city": "Chesapeake",
        "state": "VA",
        "postalCode": "23323",
        "coordinates": {
            "lat": 0,
            "lng": 0
        }
    },
    {
        "address1": "3217 Dodd Dr",
        "address2": "",
        "city": "Chesapeake",
        "state": "VA",
        "postalCode": "23323",
        "coordinates": {
            "lat": 0,
            "lng": 0
        }
    },
    {
        "address1": "3217 Dodd Dr",
        "address2": "",
        "city": "Chesapeake",
        "state": "VA",
        "postalCode": "23323",
        "coordinates": {
            "lat": 0,
            "lng": 0
        }
    },
    {
        "address1": "1028 West Rd",
        "address2": "",
        "city": "Chesapeake",
        "state": "VA",
        "postalCode": "23323",
        "coordinates": {
            "lat": 0,
            "lng": 0
        }
    },
    {
        "address1": "1028 West Rd",
        "address2": "",
        "city": "Chesapeake",
        "state": "VA",
        "postalCode": "23323",
        "coordinates": {
            "lat": 0,
            "lng": 0
        }
    },
    {
        "address1": "1320 Shamrock Garden Rd",
        "address2": "",
        "city": "Chesapeake",
        "state": "VA",
        "postalCode": "23323",
        "coordinates": {
            "lat": 0,
            "lng": 0
        }
    },
    {
        "address1": "1320 Shamrock Garden Rd",
        "address2": "",
        "city": "Chesapeake",
        "state": "VA",
        "postalCode": "23323",
        "coordinates": {
            "lat": 0,
            "lng": 0
        }
    },
    {
        "address1": "613 Willow Bend Dr",
        "address2": "",
        "city": "Chesapeake",
        "state": "VA",
        "postalCode": "23323",
        "coordinates": {
            "lat": 0,
            "lng": 0
        }
    },
    {
        "address1": "1 Fernwood Cir",
        "address2": "",
        "city": "Hampton",
        "state": "VA",
        "postalCode": "23666",
        "coordinates": {
            "lat": 0,
            "lng": 0
        }
    },
    {
        "address1": "1 Fernwood Cir",
        "address2": "",
        "city": "Hampton",
        "state": "VA",
        "postalCode": "23666",
        "coordinates": {
            "lat": 0,
            "lng": 0
        }
    },
    {
        "address1": "3 Andros Isle",
        "address2": "",
        "city": "Hampton",
        "state": "VA",
        "postalCode": "23666",
        "coordinates": {
            "lat": 0,
            "lng": 0
        }
    },
    {
        "address1": "3 Andros Isle",
        "address2": "",
        "city": "Hampton",
        "state": "VA",
        "postalCode": "23666",
        "coordinates": {
            "lat": 0,
            "lng": 0
        }
    },
    {
        "address1": "213 Martha Lee Dr",
        "address2": "",
        "city": "Hampton",
        "state": "VA",
        "postalCode": "23666",
        "coordinates": {
            "lat": 0,
            "lng": 0
        }
    },
    {
        "address1": "213 Martha Lee Dr",
        "address2": "",
        "city": "Hampton",
        "state": "VA",
        "postalCode": "23666",
        "coordinates": {
            "lat": 0,
            "lng": 0
        }
    },
    {
        "address1": "Po Box 7264",
        "address2": "",
        "city": "Hampton",
        "state": "VA",
        "postalCode": "23666",
        "coordinates": {
            "lat": 0,
            "lng": 0
        }
    },
    {
        "address1": "Po Box 7264",
        "address2": "",
        "city": "Hampton",
        "state": "VA",
        "postalCode": "23666",
        "coordinates": {
            "lat": 0,
            "lng": 0
        }
    },
    {
        "address1": "119 Patrician Dr",
        "address2": "",
        "city": "Hampton",
        "state": "VA",
        "postalCode": "23666",
        "coordinates": {
            "lat": 0,
            "lng": 0
        }
    },
    {
        "address1": "105 Priest Ct",
        "address2": "",
        "city": "Hampton",
        "state": "VA",
        "postalCode": "23669",
        "coordinates": {
            "lat": 0,
            "lng": 0
        }
    },
    {
        "address1": "105 Priest Ct",
        "address2": "",
        "city": "Hampton",
        "state": "VA",
        "postalCode": "23669",
        "coordinates": {
            "lat": 0,
            "lng": 0
        }
    },
    {
        "address1": "103 Hamlet Ln",
        "address2": "",
        "city": "Hampton",
        "state": "VA",
        "postalCode": "23669",
        "coordinates": {
            "lat": 0,
            "lng": 0
        }
    },
    {
        "address1": "103 Hamlet Ln",
        "address2": "",
        "city": "Hampton",
        "state": "VA",
        "postalCode": "23669",
        "coordinates": {
            "lat": 0,
            "lng": 0
        }
    },
    {
        "address1": "710 Allendale Dr",
        "address2": "",
        "city": "Hampton",
        "state": "VA",
        "postalCode": "23669",
        "coordinates": {
            "lat": 0,
            "lng": 0
        }
    },
    {
        "address1": "710 Allendale Dr",
        "address2": "",
        "city": "Hampton",
        "state": "VA",
        "postalCode": "23669",
        "coordinates": {
            "lat": 0,
            "lng": 0
        }
    },
    {
        "address1": "23 Royston Dr",
        "address2": "",
        "city": "Hampton",
        "state": "VA",
        "postalCode": "23669",
        "coordinates": {
            "lat": 0,
            "lng": 0
        }
    },
    {
        "address1": "23 Royston Dr",
        "address2": "",
        "city": "Hampton",
        "state": "VA",
        "postalCode": "23669",
        "coordinates": {
            "lat": 0,
            "lng": 0
        }
    },
    {
        "address1": "2 Eaton St",
        "address2": "",
        "city": "Hampton",
        "state": "VA",
        "postalCode": "23669",
        "coordinates": {
            "lat": 0,
            "lng": 0
        }
    },
    {
        "address1": "1613 River Rdg",
        "address2": "",
        "city": "Williamsburg",
        "state": "VA",
        "postalCode": "23185",
        "coordinates": {
            "lat": 0,
            "lng": 0
        }
    },
    {
        "address1": "1613 River Rdg",
        "address2": "",
        "city": "Williamsburg",
        "state": "VA",
        "postalCode": "23185",
        "coordinates": {
            "lat": 0,
            "lng": 0
        }
    },
    {
        "address1": "169 Howard Dr",
        "address2": "",
        "city": "Williamsburg",
        "state": "VA",
        "postalCode": "23185",
        "coordinates": {
            "lat": 0,
            "lng": 0
        }
    },
    {
        "address1": "169 Howard Dr",
        "address2": "",
        "city": "Williamsburg",
        "state": "VA",
        "postalCode": "23185",
        "coordinates": {
            "lat": 0,
            "lng": 0
        }
    },
    {
        "address1": "117 Smokehouse Ln",
        "address2": "",
        "city": "Williamsburg",
        "state": "VA",
        "postalCode": "23185",
        "coordinates": {
            "lat": 0,
            "lng": 0
        }
    },
    {
        "address1": "117 Smokehouse Ln",
        "address2": "",
        "city": "Williamsburg",
        "state": "VA",
        "postalCode": "23185",
        "coordinates": {
            "lat": 0,
            "lng": 0
        }
    },
    {
        "address1": "103 Southpoint Dr",
        "address2": "",
        "city": "Williamsburg",
        "state": "VA",
        "postalCode": "23185",
        "coordinates": {
            "lat": 0,
            "lng": 0
        }
    },
    {
        "address1": "103 Southpoint Dr",
        "address2": "",
        "city": "Williamsburg",
        "state": "VA",
        "postalCode": "23185",
        "coordinates": {
            "lat": 0,
            "lng": 0
        }
    },
    {
        "address1": "3051 Heritage Landing Rd",
        "address2": "",
        "city": "Williamsburg",
        "state": "VA",
        "postalCode": "23185",
        "coordinates": {
            "lat": 0,
            "lng": 0
        }
    },
    {
        "address1": "116 Colby Rd",
        "address2": "",
        "city": "Williamsburg",
        "state": "VA",
        "postalCode": "23188",
        "coordinates": {
            "lat": 0,
            "lng": 0
        }
    },
    {
        "address1": "116 Colby Rd",
        "address2": "",
        "city": "Williamsburg",
        "state": "VA",
        "postalCode": "23188",
        "coordinates": {
            "lat": 0,
            "lng": 0
        }
    },
    {
        "address1": "116 Theodore Allen Rd",
        "address2": "",
        "city": "Williamsburg",
        "state": "VA",
        "postalCode": "23188",
        "coordinates": {
            "lat": 0,
            "lng": 0
        }
    },
    {
        "address1": "116 Theodore Allen Rd",
        "address2": "",
        "city": "Williamsburg",
        "state": "VA",
        "postalCode": "23188",
        "coordinates": {
            "lat": 0,
            "lng": 0
        }
    },
    {
        "address1": "106 Indian Summer Ln",
        "address2": "",
        "city": "Williamsburg",
        "state": "VA",
        "postalCode": "23188",
        "coordinates": {
            "lat": 0,
            "lng": 0
        }
    },
    {
        "address1": "106 Indian Summer Ln",
        "address2": "",
        "city": "Williamsburg",
        "state": "VA",
        "postalCode": "23188",
        "coordinates": {
            "lat": 0,
            "lng": 0
        }
    },
    {
        "address1": "104 Astrid Ln",
        "address2": "",
        "city": "Williamsburg",
        "state": "VA",
        "postalCode": "23188",
        "coordinates": {
            "lat": 0,
            "lng": 0
        }
    },
    {
        "address1": "104 Astrid Ln",
        "address2": "",
        "city": "Williamsburg",
        "state": "VA",
        "postalCode": "23188",
        "coordinates": {
            "lat": 0,
            "lng": 0
        }
    },
    {
        "address1": "3904 Shady Grove Cir #D",
        "address2": "",
        "city": "Williamsburg",
        "state": "VA",
        "postalCode": "23188",
        "coordinates": {
            "lat": 0,
            "lng": 0
        }
    },
    {
        "address1": "573 Haystack Landing Rd",
        "address2": "",
        "city": "Newport News",
        "state": "VA",
        "postalCode": "23602",
        "coordinates": {
            "lat": 0,
            "lng": 0
        }
    },
    {
        "address1": "573 Haystack Landing Rd",
        "address2": "",
        "city": "Newport News",
        "state": "VA",
        "postalCode": "23602",
        "coordinates": {
            "lat": 0,
            "lng": 0
        }
    },
    {
        "address1": "571 Onancock Trl",
        "address2": "",
        "city": "Newport News",
        "state": "VA",
        "postalCode": "23602",
        "coordinates": {
            "lat": 0,
            "lng": 0
        }
    },
    {
        "address1": "571 Onancock Trl",
        "address2": "",
        "city": "Newport News",
        "state": "VA",
        "postalCode": "23602",
        "coordinates": {
            "lat": 0,
            "lng": 0
        }
    },
    {
        "address1": "703 Mac Neil Dr",
        "address2": "",
        "city": "Newport News",
        "state": "VA",
        "postalCode": "23602",
        "coordinates": {
            "lat": 0,
            "lng": 0
        }
    },
    {
        "address1": "703 Mac Neil Dr",
        "address2": "",
        "city": "Newport News",
        "state": "VA",
        "postalCode": "23602",
        "coordinates": {
            "lat": 0,
            "lng": 0
        }
    },
    {
        "address1": "852 Holbrook Dr",
        "address2": "",
        "city": "Newport News",
        "state": "VA",
        "postalCode": "23602",
        "coordinates": {
            "lat": 0,
            "lng": 0
        }
    },
    {
        "address1": "852 Holbrook Dr",
        "address2": "",
        "city": "Newport News",
        "state": "VA",
        "postalCode": "23602",
        "coordinates": {
            "lat": 0,
            "lng": 0
        }
    },
    {
        "address1": "557 York River Ln",
        "address2": "",
        "city": "Newport News",
        "state": "VA",
        "postalCode": "23602",
        "coordinates": {
            "lat": 0,
            "lng": 0
        }
    },
    {
        "address1": "67 Stanley Dr",
        "address2": "",
        "city": "Newport News",
        "state": "VA",
        "postalCode": "23608",
        "coordinates": {
            "lat": 0,
            "lng": 0
        }
    },
    {
        "address1": "67 Stanley Dr",
        "address2": "",
        "city": "Newport News",
        "state": "VA",
        "postalCode": "23608",
        "coordinates": {
            "lat": 0,
            "lng": 0
        }
    },
    {
        "address1": "477 Reddick Rd",
        "address2": "",
        "city": "Newport News",
        "state": "VA",
        "postalCode": "23608",
        "coordinates": {
            "lat": 0,
            "lng": 0
        }
    },
    {
        "address1": "477 Reddick Rd",
        "address2": "",
        "city": "Newport News",
        "state": "VA",
        "postalCode": "23608",
        "coordinates": {
            "lat": 0,
            "lng": 0
        }
    },
    {
        "address1": "220 Crane Cir #APT L",
        "address2": "",
        "city": "Newport News",
        "state": "VA",
        "postalCode": "23608",
        "coordinates": {
            "lat": 0,
            "lng": 0
        }
    },
    {
        "address1": "220 Crane Cir #APT L",
        "address2": "",
        "city": "Newport News",
        "state": "VA",
        "postalCode": "23608",
        "coordinates": {
            "lat": 0,
            "lng": 0
        }
    },
    {
        "address1": "1425 Ventura Way",
        "address2": "",
        "city": "Newport News",
        "state": "VA",
        "postalCode": "23608",
        "coordinates": {
            "lat": 0,
            "lng": 0
        }
    },
    {
        "address1": "1425 Ventura Way",
        "address2": "",
        "city": "Newport News",
        "state": "VA",
        "postalCode": "23608",
        "coordinates": {
            "lat": 0,
            "lng": 0
        }
    },
    {
        "address1": "460 Richneck Rd",
        "address2": "",
        "city": "Newport News",
        "state": "VA",
        "postalCode": "23608",
        "coordinates": {
            "lat": 0,
            "lng": 0
        }
    },
    {
        "address1": "2307 Norcova Ave",
        "address2": "",
        "city": "Norfolk",
        "state": "VA",
        "postalCode": "23513",
        "coordinates": {
            "lat": 0,
            "lng": 0
        }
    },
    {
        "address1": "1340 Longdale Dr",
        "address2": "",
        "city": "Norfolk",
        "state": "VA",
        "postalCode": "23513",
        "coordinates": {
            "lat": 0,
            "lng": 0
        }
    },
    {
        "address1": "6347 Chesapeake Blvd #APT 56",
        "address2": "",
        "city": "Norfolk",
        "state": "VA",
        "postalCode": "23513",
        "coordinates": {
            "lat": 0,
            "lng": 0
        }
    },
    {
        "address1": "2305 Alder St",
        "address2": "",
        "city": "Norfolk",
        "state": "VA",
        "postalCode": "23513",
        "coordinates": {
            "lat": 0,
            "lng": 0
        }
    },
    {
        "address1": "1068 Bland St",
        "address2": "",
        "city": "Norfolk",
        "state": "VA",
        "postalCode": "23513",
        "coordinates": {
            "lat": 0,
            "lng": 0
        }
    },
    {
        "address1": "1218 Underwood Ave",
        "address2": "",
        "city": "Norfolk",
        "state": "VA",
        "postalCode": "23513",
        "coordinates": {
            "lat": 0,
            "lng": 0
        }
    },
    {
        "address1": "6912 Bonnot Dr",
        "address2": "",
        "city": "Norfolk",
        "state": "VA",
        "postalCode": "23513",
        "coordinates": {
            "lat": 0,
            "lng": 0
        }
    },
    {
        "address1": "6337 Sedgefield Dr",
        "address2": "",
        "city": "Norfolk",
        "state": "VA",
        "postalCode": "23513",
        "coordinates": {
            "lat": 0,
            "lng": 0
        }
    },
    {
        "address1": "901 Spaulding Dr",
        "address2": "",
        "city": "Norfolk",
        "state": "VA",
        "postalCode": "23513",
        "coordinates": {
            "lat": 0,
            "lng": 0
        }
    },
    {
        "address1": "8139 Pace Rd",
        "address2": "",
        "city": "Norfolk",
        "state": "VA",
        "postalCode": "23518",
        "coordinates": {
            "lat": 0,
            "lng": 0
        }
    },
    {
        "address1": "8219 Carrene Dr",
        "address2": "",
        "city": "Norfolk",
        "state": "VA",
        "postalCode": "23518",
        "coordinates": {
            "lat": 0,
            "lng": 0
        }
    },
    {
        "address1": "6438 Bridle Way",
        "address2": "",
        "city": "Norfolk",
        "state": "VA",
        "postalCode": "23518",
        "coordinates": {
            "lat": 0,
            "lng": 0
        }
    },
    {
        "address1": "1601 Harmon St",
        "address2": "",
        "city": "Norfolk",
        "state": "VA",
        "postalCode": "23518",
        "coordinates": {
            "lat": 0,
            "lng": 0
        }
    },
    {
        "address1": "929 Mildred St",
        "address2": "",
        "city": "Norfolk",
        "state": "VA",
        "postalCode": "23518",
        "coordinates": {
            "lat": 0,
            "lng": 0
        }
    },
    {
        "address1": "7854 Azalea Grdn Rd #77",
        "address2": "",
        "city": "Norfolk",
        "state": "VA",
        "postalCode": "23518",
        "coordinates": {
            "lat": 0,
            "lng": 0
        }
    },
    {
        "address1": "7921 Lion Ave",
        "address2": "",
        "city": "Norfolk",
        "state": "VA",
        "postalCode": "23518",
        "coordinates": {
            "lat": 0,
            "lng": 0
        }
    },
    {
        "address1": "8036 Danbury Dr",
        "address2": "",
        "city": "Norfolk",
        "state": "VA",
        "postalCode": "23518",
        "coordinates": {
            "lat": 0,
            "lng": 0
        }
    },
    {
        "address1": "8329 Norristown Dr",
        "address2": "",
        "city": "Norfolk",
        "state": "VA",
        "postalCode": "23518",
        "coordinates": {
            "lat": 0,
            "lng": 0
        }
    },
    {
        "address1": "4384 Lake Prince Dr",
        "address2": "",
        "city": "Suffolk",
        "state": "VA",
        "postalCode": "23434",
        "coordinates": {
            "lat": 0,
            "lng": 0
        }
    },
    {
        "address1": "4384 Lake Prince Dr",
        "address2": "",
        "city": "Suffolk",
        "state": "VA",
        "postalCode": "23434",
        "coordinates": {
            "lat": 0,
            "lng": 0
        }
    },
    {
        "address1": "1073 Carolina Rd",
        "address2": "",
        "city": "Suffolk",
        "state": "VA",
        "postalCode": "23434",
        "coordinates": {
            "lat": 0,
            "lng": 0
        }
    },
    {
        "address1": "1073 Carolina Rd",
        "address2": "",
        "city": "Suffolk",
        "state": "VA",
        "postalCode": "23434",
        "coordinates": {
            "lat": 0,
            "lng": 0
        }
    },
    {
        "address1": "1161 Nansemond Pky",
        "address2": "",
        "city": "Suffolk",
        "state": "VA",
        "postalCode": "23434",
        "coordinates": {
            "lat": 0,
            "lng": 0
        }
    },
    {
        "address1": "1161 Nansemond Pky",
        "address2": "",
        "city": "Suffolk",
        "state": "VA",
        "postalCode": "23434",
        "coordinates": {
            "lat": 0,
            "lng": 0
        }
    },
    {
        "address1": "910 Brook Ave",
        "address2": "",
        "city": "Suffolk",
        "state": "VA",
        "postalCode": "23434",
        "coordinates": {
            "lat": 0,
            "lng": 0
        }
    },
    {
        "address1": "910 Brook Ave",
        "address2": "",
        "city": "Suffolk",
        "state": "VA",
        "postalCode": "23434",
        "coordinates": {
            "lat": 0,
            "lng": 0
        }
    },
    {
        "address1": "219 Prospect Rd #APT 120",
        "address2": "",
        "city": "Suffolk",
        "state": "VA",
        "postalCode": "23434",
        "coordinates": {
            "lat": 0,
            "lng": 0
        }
    },
    {
        "address1": "2632 N Nansemond Dr",
        "address2": "",
        "city": "Suffolk",
        "state": "VA",
        "postalCode": "23435",
        "coordinates": {
            "lat": 0,
            "lng": 0
        }
    },
    {
        "address1": "2632 N Nansemond Dr",
        "address2": "",
        "city": "Suffolk",
        "state": "VA",
        "postalCode": "23435",
        "coordinates": {
            "lat": 0,
            "lng": 0
        }
    },
    {
        "address1": "5106 W Creek Ct",
        "address2": "",
        "city": "Suffolk",
        "state": "VA",
        "postalCode": "23435",
        "coordinates": {
            "lat": 0,
            "lng": 0
        }
    },
    {
        "address1": "5106 W Creek Ct",
        "address2": "",
        "city": "Suffolk",
        "state": "VA",
        "postalCode": "23435",
        "coordinates": {
            "lat": 0,
            "lng": 0
        }
    },
    {
        "address1": "3915 Breezeport Way",
        "address2": "",
        "city": "Suffolk",
        "state": "VA",
        "postalCode": "23435",
        "coordinates": {
            "lat": 0,
            "lng": 0
        }
    },
    {
        "address1": "3915 Breezeport Way",
        "address2": "",
        "city": "Suffolk",
        "state": "VA",
        "postalCode": "23435",
        "coordinates": {
            "lat": 0,
            "lng": 0
        }
    },
    {
        "address1": "5218 Shoal Creek Rd",
        "address2": "",
        "city": "Suffolk",
        "state": "VA",
        "postalCode": "23435",
        "coordinates": {
            "lat": 0,
            "lng": 0
        }
    },
    {
        "address1": "5218 Shoal Creek Rd",
        "address2": "",
        "city": "Suffolk",
        "state": "VA",
        "postalCode": "23435",
        "coordinates": {
            "lat": 0,
            "lng": 0
        }
    },
    {
        "address1": "1050 Belle Orchard Ln",
        "address2": "",
        "city": "Suffolk",
        "state": "VA",
        "postalCode": "23435",
        "coordinates": {
            "lat": 0,
            "lng": 0
        }
    },
    {
        "address1": "3100 Shore Dr #APT 302",
        "address2": "",
        "city": "Virginia Beach",
        "state": "VA",
        "postalCode": "23451",
        "coordinates": {
            "lat": 0,
            "lng": 0
        }
    },
    {
        "address1": "3100 Shore Dr #APT 302",
        "address2": "",
        "city": "Virginia Beach",
        "state": "VA",
        "postalCode": "23451",
        "coordinates": {
            "lat": 0,
            "lng": 0
        }
    },
    {
        "address1": "2300 Beach Haven Dr #301",
        "address2": "",
        "city": "Virginia Beach",
        "state": "VA",
        "postalCode": "23451",
        "coordinates": {
            "lat": 0,
            "lng": 0
        }
    },
    {
        "address1": "2300 Beach Haven Dr #301",
        "address2": "",
        "city": "Virginia Beach",
        "state": "VA",
        "postalCode": "23451",
        "coordinates": {
            "lat": 0,
            "lng": 0
        }
    },
    {
        "address1": "522 Pine Song Ln",
        "address2": "",
        "city": "Virginia Beach",
        "state": "VA",
        "postalCode": "23451",
        "coordinates": {
            "lat": 0,
            "lng": 0
        }
    },
    {
        "address1": "522 Pine Song Ln",
        "address2": "",
        "city": "Virginia Beach",
        "state": "VA",
        "postalCode": "23451",
        "coordinates": {
            "lat": 0,
            "lng": 0
        }
    },
    {
        "address1": "417 Terrace Ave",
        "address2": "",
        "city": "Virginia Beach",
        "state": "VA",
        "postalCode": "23451",
        "coordinates": {
            "lat": 0,
            "lng": 0
        }
    },
    {
        "address1": "417 Terrace Ave",
        "address2": "",
        "city": "Virginia Beach",
        "state": "VA",
        "postalCode": "23451",
        "coordinates": {
            "lat": 0,
            "lng": 0
        }
    },
    {
        "address1": "105 Shore View Ct",
        "address2": "",
        "city": "Virginia Beach",
        "state": "VA",
        "postalCode": "23451",
        "coordinates": {
            "lat": 0,
            "lng": 0
        }
    },
    {
        "address1": "3604 Malibu Palms Dr #APT 102",
        "address2": "",
        "city": "Virginia Beach",
        "state": "VA",
        "postalCode": "23452",
        "coordinates": {
            "lat": 0,
            "lng": 0
        }
    },
    {
        "address1": "3604 Malibu Palms Dr #APT 102",
        "address2": "",
        "city": "Virginia Beach",
        "state": "VA",
        "postalCode": "23452",
        "coordinates": {
            "lat": 0,
            "lng": 0
        }
    },
    {
        "address1": "206 N Fir Ave",
        "address2": "",
        "city": "Virginia Beach",
        "state": "VA",
        "postalCode": "23452",
        "coordinates": {
            "lat": 0,
            "lng": 0
        }
    },
    {
        "address1": "206 N Fir Ave",
        "address2": "",
        "city": "Virginia Beach",
        "state": "VA",
        "postalCode": "23452",
        "coordinates": {
            "lat": 0,
            "lng": 0
        }
    },
    {
        "address1": "1308 W Little Neck Rd",
        "address2": "",
        "city": "Virginia Beach",
        "state": "VA",
        "postalCode": "23452",
        "coordinates": {
            "lat": 0,
            "lng": 0
        }
    },
    {
        "address1": "1308 W Little Neck Rd",
        "address2": "",
        "city": "Virginia Beach",
        "state": "VA",
        "postalCode": "23452",
        "coordinates": {
            "lat": 0,
            "lng": 0
        }
    },
    {
        "address1": "929 Woodmark Ct",
        "address2": "",
        "city": "Virginia Beach",
        "state": "VA",
        "postalCode": "23452",
        "coordinates": {
            "lat": 0,
            "lng": 0
        }
    },
    {
        "address1": "929 Woodmark Ct",
        "address2": "",
        "city": "Virginia Beach",
        "state": "VA",
        "postalCode": "23452",
        "coordinates": {
            "lat": 0,
            "lng": 0
        }
    },
    {
        "address1": "241 S Budding Ave",
        "address2": "",
        "city": "Virginia Beach",
        "state": "VA",
        "postalCode": "23452",
        "coordinates": {
            "lat": 0,
            "lng": 0
        }
    },
    {
        "address1": "2821 Augusta Cir",
        "address2": "",
        "city": "Virginia Beach",
        "state": "VA",
        "postalCode": "23453",
        "coordinates": {
            "lat": 0,
            "lng": 0
        }
    },
    {
        "address1": "2821 Augusta Cir",
        "address2": "",
        "city": "Virginia Beach",
        "state": "VA",
        "postalCode": "23453",
        "coordinates": {
            "lat": 0,
            "lng": 0
        }
    },
    {
        "address1": "3960 Rica Dr",
        "address2": "",
        "city": "Virginia Beach",
        "state": "VA",
        "postalCode": "23453",
        "coordinates": {
            "lat": 0,
            "lng": 0
        }
    },
    {
        "address1": "3960 Rica Dr",
        "address2": "",
        "city": "Virginia Beach",
        "state": "VA",
        "postalCode": "23453",
        "coordinates": {
            "lat": 0,
            "lng": 0
        }
    },
    {
        "address1": "3812 Keelboat Cir",
        "address2": "",
        "city": "Virginia Beach",
        "state": "VA",
        "postalCode": "23453",
        "coordinates": {
            "lat": 0,
            "lng": 0
        }
    },
    {
        "address1": "3244 Twinflower Ln",
        "address2": "",
        "city": "Virginia Beach",
        "state": "VA",
        "postalCode": "23453",
        "coordinates": {
            "lat": 0,
            "lng": 0
        }
    },
    {
        "address1": "2933 Dante Pl",
        "address2": "",
        "city": "Virginia Beach",
        "state": "VA",
        "postalCode": "23453",
        "coordinates": {
            "lat": 0,
            "lng": 0
        }
    },
    {
        "address1": "1232 Green Cedar Ln",
        "address2": "",
        "city": "Virginia Beach",
        "state": "VA",
        "postalCode": "23453",
        "coordinates": {
            "lat": 0,
            "lng": 0
        }
    },
    {
        "address1": "913 Roberval Dr",
        "address2": "",
        "city": "Virginia Beach",
        "state": "VA",
        "postalCode": "23454",
        "coordinates": {
            "lat": 0,
            "lng": 0
        }
    },
    {
        "address1": "913 Roberval Dr",
        "address2": "",
        "city": "Virginia Beach",
        "state": "VA",
        "postalCode": "23454",
        "coordinates": {
            "lat": 0,
            "lng": 0
        }
    },
    {
        "address1": "1537 Mill Dam Rd",
        "address2": "",
        "city": "Virginia Beach",
        "state": "VA",
        "postalCode": "23454",
        "coordinates": {
            "lat": 0,
            "lng": 0
        }
    },
    {
        "address1": "1537 Mill Dam Rd",
        "address2": "",
        "city": "Virginia Beach",
        "state": "VA",
        "postalCode": "23454",
        "coordinates": {
            "lat": 0,
            "lng": 0
        }
    },
    {
        "address1": "1710 Sword Dancer Dr",
        "address2": "",
        "city": "Virginia Beach",
        "state": "VA",
        "postalCode": "23454",
        "coordinates": {
            "lat": 0,
            "lng": 0
        }
    },
    {
        "address1": "1710 Sword Dancer Dr",
        "address2": "",
        "city": "Virginia Beach",
        "state": "VA",
        "postalCode": "23454",
        "coordinates": {
            "lat": 0,
            "lng": 0
        }
    },
    {
        "address1": "2142 Retreat Ct",
        "address2": "",
        "city": "Virginia Beach",
        "state": "VA",
        "postalCode": "23454",
        "coordinates": {
            "lat": 0,
            "lng": 0
        }
    },
    {
        "address1": "2142 Retreat Ct",
        "address2": "",
        "city": "Virginia Beach",
        "state": "VA",
        "postalCode": "23454",
        "coordinates": {
            "lat": 0,
            "lng": 0
        }
    },
    {
        "address1": "1221 Gunn Hall Dr",
        "address2": "",
        "city": "Virginia Beach",
        "state": "VA",
        "postalCode": "23454",
        "coordinates": {
            "lat": 0,
            "lng": 0
        }
    },
    {
        "address1": "4948 Casablanca Rd",
        "address2": "",
        "city": "Virginia Beach",
        "state": "VA",
        "postalCode": "23455",
        "coordinates": {
            "lat": 0,
            "lng": 0
        }
    },
    {
        "address1": "4948 Casablanca Rd",
        "address2": "",
        "city": "Virginia Beach",
        "state": "VA",
        "postalCode": "23455",
        "coordinates": {
            "lat": 0,
            "lng": 0
        }
    },
    {
        "address1": "5513 Westbury Rd",
        "address2": "",
        "city": "Virginia Beach",
        "state": "VA",
        "postalCode": "23455",
        "coordinates": {
            "lat": 0,
            "lng": 0
        }
    },
    {
        "address1": "5513 Westbury Rd",
        "address2": "",
        "city": "Virginia Beach",
        "state": "VA",
        "postalCode": "23455",
        "coordinates": {
            "lat": 0,
            "lng": 0
        }
    },
    {
        "address1": "5001 Coltfield Ct",
        "address2": "",
        "city": "Virginia Beach",
        "state": "VA",
        "postalCode": "23455",
        "coordinates": {
            "lat": 0,
            "lng": 0
        }
    },
    {
        "address1": "5001 Coltfield Ct",
        "address2": "",
        "city": "Virginia Beach",
        "state": "VA",
        "postalCode": "23455",
        "coordinates": {
            "lat": 0,
            "lng": 0
        }
    },
    {
        "address1": "1037 Dulcie Ave",
        "address2": "",
        "city": "Virginia Beach",
        "state": "VA",
        "postalCode": "23455",
        "coordinates": {
            "lat": 0,
            "lng": 0
        }
    },
    {
        "address1": "1037 Dulcie Ave",
        "address2": "",
        "city": "Virginia Beach",
        "state": "VA",
        "postalCode": "23455",
        "coordinates": {
            "lat": 0,
            "lng": 0
        }
    },
    {
        "address1": "4424 Chandler Ln",
        "address2": "",
        "city": "Virginia Beach",
        "state": "VA",
        "postalCode": "23455",
        "coordinates": {
            "lat": 0,
            "lng": 0
        }
    }
]